"Station Name","MCTAVISH"
"Province","QUEBEC"
"Latitude","45.51"
"Longitude","-73.58"
"Elevation","73.10"
"Climate Identifier","7024745"
"WMO Identifier","71612"
"TC Identifier","WTA"
"All times are specified in Local Standard Time (LST). Add 1 hour to adjust for Daylight Saving Time where and when it is observed."

"Legend"
"M","Missing"
"E","Estimated"
"NA","Not Available"
"**","Partner data that is not subject to review by the National Climate Archives"

"Date/Time","Year","Month","Day","Time","Data Quality","Temp (°C)","Temp Flag","Dew Point Temp (°C)","Dew Point Temp Flag","Rel Hum (%)","Rel Hum Flag","Wind Dir (10s deg)","Wind Dir Flag","Wind Spd (km/h)","Wind Spd Flag","Visibility (km)","Visibility Flag","Stn Press (kPa)","Stn Press Flag","Hmdx","Hmdx Flag","Wind Chill","Wind Chill Flag","Weather"
"2012-10-01 00:00","2012","10","01","00:00"," ","11.20","","10.20","","94.00","","26.00","","4.00","","","","99.19","","","","","","NA"
"2012-10-01 01:00","2012","10","01","01:00"," ","11.20","","10.20","","94.00","","27.00","","4.00","","","","99.13","","","","","","NA"
"2012-10-01 02:00","2012","10","01","02:00"," ","11.20","","10.20","","94.00","","29.00","","2.00","","","","99.06","","","","","","NA"
"2012-10-01 03:00","2012","10","01","03:00"," ","11.20","","10.40","","95.00","","17.00","","2.00","","","","99.01","","","","","","NA"
"2012-10-01 04:00","2012","10","01","04:00"," ","11.10","","10.30","","95.00","","25.00","","4.00","","","","99.00","","","","","","NA"
"2012-10-01 05:00","2012","10","01","05:00"," ","11.20","","10.30","","94.00","","25.00","","4.00","","","","99.02","","","","","","NA"
"2012-10-01 06:00","2012","10","01","06:00"," ","11.40","","10.30","","93.00","","25.00","","6.00","","","","99.07","","","","","","NA"
"2012-10-01 07:00","2012","10","01","07:00"," ","11.90","","10.50","","91.00","","25.00","","6.00","","","","99.16","","","","","","NA"
"2012-10-01 08:00","2012","10","01","08:00"," ","12.00","","10.50","","91.00","","36.00","","6.00","","","","99.27","","","","","","NA"
"2012-10-01 09:00","2012","10","01","09:00"," ","13.60","","11.60","","88.00","","28.00","","4.00","","","","99.35","","","","","","NA"
"2012-10-01 10:00","2012","10","01","10:00"," ","14.80","","11.80","","82.00","","26.00","","2.00","","","","99.43","","","","","","NA"
"2012-10-01 11:00","2012","10","01","11:00"," ","15.20","","11.60","","79.00","","16.00","","4.00","","","","99.51","","","","","","NA"
"2012-10-01 12:00","2012","10","01","12:00"," ","15.40","","11.40","","77.00","","30.00","","4.00","","","","99.60","","","","","","NA"
"2012-10-01 13:00","2012","10","01","13:00"," ","15.30","","10.60","","74.00","","25.00","","6.00","","","","99.69","","","","","","NA"
"2012-10-01 14:00","2012","10","01","14:00"," ","15.60","","10.80","","73.00","","25.00","","6.00","","","","99.75","","","","","","NA"
"2012-10-01 15:00","2012","10","01","15:00"," ","15.40","","11.10","","76.00","","20.00","","4.00","","","","99.81","","","","","","NA"
"2012-10-01 16:00","2012","10","01","16:00"," ","14.70","","10.60","","76.00","","29.00","","6.00","","","","99.90","","","","","","NA"
"2012-10-01 17:00","2012","10","01","17:00"," ","14.70","","10.70","","77.00","","22.00","","4.00","","","","100.01","","","","","","NA"
"2012-10-01 18:00","2012","10","01","18:00"," ","14.60","","10.70","","77.00","","25.00","","4.00","","","","100.08","","","","","","NA"
"2012-10-01 19:00","2012","10","01","19:00"," ","14.60","","10.90","","78.00","","18.00","","2.00","","","","100.13","","","","","","NA"
"2012-10-01 20:00","2012","10","01","20:00"," ","14.20","","11.20","","82.00","","23.00","","6.00","","","","100.17","","","","","","NA"
"2012-10-01 21:00","2012","10","01","21:00"," ","14.30","","11.10","","81.00","","24.00","","4.00","","","","100.23","","","","","","NA"
"2012-10-01 22:00","2012","10","01","22:00"," ","14.20","","11.20","","82.00","","23.00","","2.00","","","","100.24","","","","","","NA"
"2012-10-01 23:00","2012","10","01","23:00"," ","13.40","","11.30","","87.00","","22.00","","7.00","","","","100.31","","","","","","NA"
"2012-10-02 00:00","2012","10","02","00:00"," ","14.20","","12.20","","88.00","","26.00","","6.00","","","","100.31","","","","","","NA"
"2012-10-02 01:00","2012","10","02","01:00"," ","14.00","","12.50","","91.00","","27.00","","7.00","","","","100.32","","","","","","NA"
"2012-10-02 02:00","2012","10","02","02:00"," ","13.70","","12.20","","91.00","","28.00","","9.00","","","","100.32","","","","","","NA"
"2012-10-02 03:00","2012","10","02","03:00"," ","13.50","","12.00","","91.00","","29.00","","9.00","","","","100.38","","","","","","NA"
"2012-10-02 04:00","2012","10","02","04:00"," ","13.30","","11.80","","91.00","","30.00","","9.00","","","","100.39","","","","","","NA"
"2012-10-02 05:00","2012","10","02","05:00"," ","13.40","","12.10","","92.00","","30.00","","9.00","","","","100.46","","","","","","NA"
"2012-10-02 06:00","2012","10","02","06:00"," ","13.20","","11.60","","90.00","","28.00","","9.00","","","","100.51","","","","","","NA"
"2012-10-02 07:00","2012","10","02","07:00"," ","13.50","","11.80","","89.00","","21.00","","4.00","","","","100.58","","","","","","NA"
"2012-10-02 08:00","2012","10","02","08:00"," ","14.00","","12.00","","88.00","","25.00","","6.00","","","","100.63","","","","","","NA"
"2012-10-02 09:00","2012","10","02","09:00"," ","15.20","","12.80","","86.00","","18.00","","6.00","","","","100.65","","","","","","NA"
"2012-10-02 10:00","2012","10","02","10:00"," ","15.30","","12.40","","83.00","","17.00","","4.00","","","","100.66","","","","","","NA"
"2012-10-02 11:00","2012","10","02","11:00"," ","17.20","","12.90","","76.00","","19.00","","7.00","","","","100.66","","","","","","NA"
"2012-10-02 12:00","2012","10","02","12:00"," ","18.10","","11.90","","67.00","","22.00","","7.00","","","","100.66","","","","","","NA"
"2012-10-02 13:00","2012","10","02","13:00"," ","18.40","","11.50","","64.00","","21.00","","9.00","","","","100.58","","","","","","NA"
"2012-10-02 14:00","2012","10","02","14:00"," ","18.80","","12.20","","65.00","","22.00","","6.00","","","","100.61","","","","","","NA"
"2012-10-02 15:00","2012","10","02","15:00"," ","18.80","","11.50","","63.00","","23.00","","4.00","","","","100.65","","","","","","NA"
"2012-10-02 16:00","2012","10","02","16:00"," ","18.40","","12.30","","68.00","","22.00","","4.00","","","","100.64","","","","","","NA"
"2012-10-02 17:00","2012","10","02","17:00"," ","17.80","","12.20","","70.00","","19.00","","6.00","","","","100.68","","","","","","NA"
"2012-10-02 18:00","2012","10","02","18:00"," ","16.60","","12.50","","77.00","","20.00","","4.00","","","","100.74","","","","","","NA"
"2012-10-02 19:00","2012","10","02","19:00"," ","16.10","","12.70","","80.00","","21.00","","6.00","","","","100.75","","","","","","NA"
"2012-10-02 20:00","2012","10","02","20:00"," ","15.80","","12.50","","81.00","","22.00","","6.00","","","","100.80","","","","","","NA"
"2012-10-02 21:00","2012","10","02","21:00"," ","14.40","","12.00","","85.00","","25.00","","2.00","","","","100.84","","","","","","NA"
"2012-10-02 22:00","2012","10","02","22:00"," ","13.60","","11.80","","89.00","","30.00","","4.00","","","","100.87","","","","","","NA"
"2012-10-02 23:00","2012","10","02","23:00"," ","13.50","","12.00","","91.00","","28.00","","2.00","","","","100.89","","","","","","NA"
"2012-10-03 00:00","2012","10","03","00:00"," ","13.40","","12.20","","92.00","","28.00","","4.00","","","","100.88","","","","","","NA"
"2012-10-03 01:00","2012","10","03","01:00"," ","12.80","","11.90","","94.00","","26.00","","2.00","","","","100.91","","","","","","NA"
"2012-10-03 02:00","2012","10","03","02:00"," ","12.60","","11.80","","95.00","","28.00","","2.00","","","","100.90","","","","","","NA"
"2012-10-03 03:00","2012","10","03","03:00"," ","12.90","","12.10","","95.00","","1.00","","4.00","","","","100.92","","","","","","NA"
"2012-10-03 04:00","2012","10","03","04:00"," ","12.90","","12.00","","94.00","","3.00","","4.00","","","","100.96","","","","","","NA"
"2012-10-03 05:00","2012","10","03","05:00"," ","12.30","","11.60","","95.00","","2.00","","4.00","","","","100.96","","","","","","NA"
"2012-10-03 06:00","2012","10","03","06:00"," ","12.10","","11.40","","95.00","","36.00","","4.00","","","","101.00","","","","","","NA"
"2012-10-03 07:00","2012","10","03","07:00"," ","12.30","","11.50","","95.00","","1.00","","7.00","","","","101.06","","","","","","NA"
"2012-10-03 08:00","2012","10","03","08:00"," ","12.70","","11.80","","94.00","","2.00","","7.00","","","","101.13","","","","","","NA"
"2012-10-03 09:00","2012","10","03","09:00"," ","14.30","","12.90","","91.00","","3.00","","9.00","","","","101.11","","","","","","NA"
"2012-10-03 10:00","2012","10","03","10:00"," ","14.90","","12.60","","86.00","","2.00","","9.00","","","","101.10","","","","","","NA"
"2012-10-03 11:00","2012","10","03","11:00"," ","16.00","","13.10","","83.00","","3.00","","7.00","","","","101.05","","","","","","NA"
"2012-10-03 12:00","2012","10","03","12:00"," ","16.30","","13.50","","83.00","","4.00","","9.00","","","","101.01","","","","","","NA"
"2012-10-03 13:00","2012","10","03","13:00"," ","16.60","","12.90","","79.00","","1.00","","7.00","","","","100.98","","","","","","NA"
"2012-10-03 14:00","2012","10","03","14:00"," ","17.90","","13.40","","75.00","","1.00","","9.00","","","","100.98","","","","","","NA"
"2012-10-03 15:00","2012","10","03","15:00"," ","18.50","","13.30","","72.00","","4.00","","7.00","","","","100.99","","","","","","NA"
"2012-10-03 16:00","2012","10","03","16:00"," ","18.50","","13.50","","73.00","","1.00","","7.00","","","","101.01","","","","","","NA"
"2012-10-03 17:00","2012","10","03","17:00"," ","18.50","","13.40","","72.00","","1.00","","6.00","","","","101.03","","","","","","NA"
"2012-10-03 18:00","2012","10","03","18:00"," ","18.60","","13.60","","73.00","","3.00","","4.00","","","","101.06","","","","","","NA"
"2012-10-03 19:00","2012","10","03","19:00"," ","18.40","","13.80","","75.00","","3.00","","4.00","","","","101.10","","","","","","NA"
"2012-10-03 20:00","2012","10","03","20:00"," ","17.60","","13.70","","78.00","","1.00","","6.00","","","","101.08","","","","","","NA"
"2012-10-03 21:00","2012","10","03","21:00"," ","17.90","","14.10","","78.00","","4.00","","6.00","","","","101.13","","","","","","NA"
"2012-10-03 22:00","2012","10","03","22:00"," ","17.60","","14.20","","80.00","","2.00","","4.00","","","","101.14","","","","","","NA"
"2012-10-03 23:00","2012","10","03","23:00"," ","17.50","","14.40","","82.00","","2.00","","4.00","","","","101.14","","","","","","NA"
"2012-10-04 00:00","2012","10","04","00:00"," ","17.00","","14.30","","84.00","","36.00","","6.00","","","","101.14","","","","","","NA"
"2012-10-04 01:00","2012","10","04","01:00"," ","15.80","","13.80","","88.00","","2.00","","6.00","","","","101.12","","","","","","NA"
"2012-10-04 02:00","2012","10","04","02:00"," ","15.00","","12.80","","87.00","","1.00","","9.00","","","","101.14","","","","","","NA"
"2012-10-04 03:00","2012","10","04","03:00"," ","13.90","","11.90","","88.00","","1.00","","9.00","","","","101.13","","","","","","NA"
"2012-10-04 04:00","2012","10","04","04:00"," ","12.50","","10.80","","89.00","","1.00","","9.00","","","","101.13","","","","","","NA"
"2012-10-04 05:00","2012","10","04","05:00"," ","11.90","","10.90","","94.00","","1.00","","7.00","","","","101.14","","","","","","NA"
"2012-10-04 06:00","2012","10","04","06:00"," ","11.70","","10.70","","94.00","","1.00","","7.00","","","","101.13","","","","","","NA"
"2012-10-04 07:00","2012","10","04","07:00"," ","11.50","","10.60","","94.00","","1.00","","7.00","","","","101.14","","","","","","NA"
"2012-10-04 08:00","2012","10","04","08:00"," ","11.70","","10.90","","95.00","","1.00","","7.00","","","","100.92","","","","","","NA"
"2012-10-04 09:00","2012","10","04","09:00"," ","","M","","M","","M","","M","","M","","","","M","","","","","NA"
"2012-10-04 10:00","2012","10","04","10:00"," ","12.60","","10.70","","88.00","","2.00","","6.00","","","","101.06","","","","","","NA"
"2012-10-04 11:00","2012","10","04","11:00"," ","13.40","","11.80","","90.00","","5.00","","6.00","","","","101.02","","","","","","NA"
"2012-10-04 12:00","2012","10","04","12:00"," ","14.10","","12.40","","89.00","","2.00","","2.00","","","","100.99","","","","","","NA"
"2012-10-04 13:00","2012","10","04","13:00"," ","14.70","","13.00","","90.00","","0.00","","0.00","","","","100.94","","","","","","NA"
"2012-10-04 14:00","2012","10","04","14:00"," ","15.00","","12.90","","87.00","","4.00","","2.00","","","","100.89","","","","","","NA"
"2012-10-04 15:00","2012","10","04","15:00"," ","15.50","","13.40","","87.00","","0.00","","0.00","","","","100.83","","","","","","NA"
"2012-10-04 16:00","2012","10","04","16:00"," ","16.30","","13.80","","85.00","","16.00","","2.00","","","","100.77","","","","","","NA"
"2012-10-04 17:00","2012","10","04","17:00"," ","16.10","","14.10","","88.00","","20.00","","4.00","","","","100.71","","","","","","NA"
"2012-10-04 18:00","2012","10","04","18:00"," ","14.60","","13.60","","94.00","","0.00","","0.00","","","","100.70","","","","","","NA"
"2012-10-04 19:00","2012","10","04","19:00"," ","14.90","","14.40","","97.00","","19.00","","4.00","","","","100.70","","","","","","NA"
"2012-10-04 20:00","2012","10","04","20:00"," ","14.80","","14.40","","97.00","","21.00","","6.00","","","","100.69","","","","","","NA"
"2012-10-04 21:00","2012","10","04","21:00"," ","14.50","","14.00","","97.00","","20.00","","2.00","","","","100.66","","","","","","NA"
"2012-10-04 22:00","2012","10","04","22:00"," ","15.40","","14.60","","95.00","","17.00","","2.00","","","","100.59","","","","","","NA"
"2012-10-04 23:00","2012","10","04","23:00"," ","16.50","","12.70","","78.00","","18.00","","7.00","","","","100.53","","","","","","NA"
"2012-10-05 00:00","2012","10","05","00:00"," ","17.00","","12.00","","72.00","","19.00","","6.00","","","","100.49","","","","","","NA"
"2012-10-05 01:00","2012","10","05","01:00"," ","16.40","","12.50","","78.00","","19.00","","6.00","","","","100.49","","","","","","NA"
"2012-10-05 02:00","2012","10","05","02:00"," ","16.00","","12.70","","81.00","","19.00","","6.00","","","","100.48","","","","","","NA"
"2012-10-05 03:00","2012","10","05","03:00"," ","15.40","","12.40","","82.00","","21.00","","4.00","","","","100.50","","","","","","NA"
"2012-10-05 04:00","2012","10","05","04:00"," ","14.70","","12.30","","86.00","","18.00","","6.00","","","","100.52","","","","","","NA"
"2012-10-05 05:00","2012","10","05","05:00"," ","14.60","","12.30","","86.00","","18.00","","6.00","","","","100.51","","","","","","NA"
"2012-10-05 06:00","2012","10","05","06:00"," ","14.70","","12.80","","88.00","","19.00","","6.00","","","","100.50","","","","","","NA"
"2012-10-05 07:00","2012","10","05","07:00"," ","15.20","","13.50","","90.00","","20.00","","6.00","","","","100.49","","","","","","NA"
"2012-10-05 08:00","2012","10","05","08:00"," ","16.10","","13.50","","85.00","","17.00","","6.00","","","","100.49","","","","","","NA"
"2012-10-05 09:00","2012","10","05","09:00"," ","16.90","","13.00","","78.00","","17.00","","7.00","","","","100.40","","","","","","NA"
"2012-10-05 10:00","2012","10","05","10:00"," ","19.40","","13.60","","69.00","","22.00","","7.00","","","","100.39","","","","","","NA"
"2012-10-05 11:00","2012","10","05","11:00"," ","17.60","","13.70","","78.00","","21.00","","6.00","","","","100.42","","","","","","NA"
"2012-10-05 12:00","2012","10","05","12:00"," ","17.80","","14.10","","79.00","","19.00","","7.00","","","","100.31","","","","","","NA"
"2012-10-05 13:00","2012","10","05","13:00"," ","19.10","","14.00","","72.00","","21.00","","7.00","","","","100.26","","","","","","NA"
"2012-10-05 14:00","2012","10","05","14:00"," ","19.30","","14.70","","75.00","","21.00","","7.00","","","","100.19","","","","","","NA"
"2012-10-05 15:00","2012","10","05","15:00"," ","20.30","","14.70","","70.00","","20.00","","6.00","","","","100.15","","","","","","NA"
"2012-10-05 16:00","2012","10","05","16:00"," ","20.30","","14.80","","71.00","","20.00","","6.00","","","","100.12","","","","","","NA"
"2012-10-05 17:00","2012","10","05","17:00"," ","19.70","","14.30","","71.00","","20.00","","6.00","","","","100.11","","","","","","NA"
"2012-10-05 18:00","2012","10","05","18:00"," ","18.80","","14.10","","74.00","","20.00","","7.00","","","","100.11","","","","","","NA"
"2012-10-05 19:00","2012","10","05","19:00"," ","18.50","","13.60","","73.00","","20.00","","7.00","","","","100.11","","","","","","NA"
"2012-10-05 20:00","2012","10","05","20:00"," ","18.10","","14.00","","77.00","","22.00","","6.00","","","","100.12","","","","","","NA"
"2012-10-05 21:00","2012","10","05","21:00"," ","17.80","","13.70","","77.00","","20.00","","6.00","","","","100.12","","","","","","NA"
"2012-10-05 22:00","2012","10","05","22:00"," ","17.40","","12.00","","71.00","","20.00","","6.00","","","","100.10","","","","","","NA"
"2012-10-05 23:00","2012","10","05","23:00"," ","17.10","","11.40","","69.00","","21.00","","6.00","","","","100.08","","","","","","NA"
"2012-10-06 00:00","2012","10","06","00:00"," ","16.80","","11.30","","70.00","","18.00","","4.00","","","","100.08","","","","","","NA"
"2012-10-06 01:00","2012","10","06","01:00"," ","16.40","","10.60","","69.00","","20.00","","4.00","","","","100.06","","","","","","NA"
"2012-10-06 02:00","2012","10","06","02:00"," ","15.20","","9.50","","69.00","","21.00","","2.00","","","","100.00","","","","","","NA"
"2012-10-06 03:00","2012","10","06","03:00"," ","14.50","","9.80","","73.00","","32.00","","2.00","","","","99.94","","","","","","NA"
"2012-10-06 04:00","2012","10","06","04:00"," ","11.70","","8.40","","80.00","","35.00","","11.00","","","","99.89","","","","","","NA"
"2012-10-06 05:00","2012","10","06","05:00"," ","9.70","","8.40","","92.00","","35.00","","9.00","","","","99.88","","","","","","NA"
"2012-10-06 06:00","2012","10","06","06:00"," ","9.30","","8.30","","93.00","","35.00","","7.00","","","","99.91","","","","","","NA"
"2012-10-06 07:00","2012","10","06","07:00"," ","8.80","","7.80","","93.00","","34.00","","6.00","","","","99.91","","","","","","NA"
"2012-10-06 08:00","2012","10","06","08:00"," ","8.90","","7.90","","93.00","","33.00","","2.00","","","","99.93","","","","","","NA"
"2012-10-06 09:00","2012","10","06","09:00"," ","9.00","","7.80","","92.00","","27.00","","2.00","","","","99.88","","","","","","NA"
"2012-10-06 10:00","2012","10","06","10:00"," ","9.40","","8.00","","91.00","","20.00","","4.00","","","","99.88","","","","","","NA"
"2012-10-06 11:00","2012","10","06","11:00"," ","9.60","","8.40","","92.00","","20.00","","2.00","","","","99.90","","","","","","NA"
"2012-10-06 12:00","2012","10","06","12:00"," ","10.40","","8.40","","87.00","","22.00","","6.00","","","","99.88","","","","","","NA"
"2012-10-06 13:00","2012","10","06","13:00"," ","11.20","","8.30","","82.00","","24.00","","6.00","","","","99.86","","","","","","NA"
"2012-10-06 14:00","2012","10","06","14:00"," ","12.20","","8.40","","78.00","","22.00","","6.00","","","","99.85","","","","","","NA"
"2012-10-06 15:00","2012","10","06","15:00"," ","13.30","","8.20","","71.00","","20.00","","9.00","","","","99.77","","","","","","NA"
"2012-10-06 16:00","2012","10","06","16:00"," ","13.60","","7.50","","67.00","","20.00","","7.00","","","","99.80","","","","","","NA"
"2012-10-06 17:00","2012","10","06","17:00"," ","12.60","","7.00","","69.00","","32.00","","4.00","","","","99.76","","","","","","NA"
"2012-10-06 18:00","2012","10","06","18:00"," ","9.90","","6.60","","80.00","","20.00","","4.00","","","","100.00","","","","","","NA"
"2012-10-06 19:00","2012","10","06","19:00"," ","9.60","","6.00","","78.00","","24.00","","4.00","","","","100.07","","","","","","NA"
"2012-10-06 20:00","2012","10","06","20:00"," ","9.80","","5.20","","73.00","","19.00","","6.00","","","","100.14","","","","","","NA"
"2012-10-06 21:00","2012","10","06","21:00"," ","9.70","","4.70","","71.00","","19.00","","6.00","","","","100.20","","","","","","NA"
"2012-10-06 22:00","2012","10","06","22:00"," ","9.10","","4.30","","72.00","","18.00","","6.00","","","","100.28","","","","","","NA"
"2012-10-06 23:00","2012","10","06","23:00"," ","8.60","","3.70","","71.00","","20.00","","7.00","","","","100.32","","","","","","NA"
"2012-10-07 00:00","2012","10","07","00:00"," ","8.30","","4.00","","74.00","","20.00","","6.00","","","","100.35","","","","","","NA"
"2012-10-07 01:00","2012","10","07","01:00"," ","8.20","","4.20","","76.00","","26.00","","4.00","","","","100.42","","","","","","NA"
"2012-10-07 02:00","2012","10","07","02:00"," ","7.30","","3.80","","78.00","","21.00","","4.00","","","","100.48","","","","","","NA"
"2012-10-07 03:00","2012","10","07","03:00"," ","6.50","","3.60","","82.00","","21.00","","4.00","","","","100.54","","","","","","NA"
"2012-10-07 04:00","2012","10","07","04:00"," ","6.00","","3.50","","84.00","","19.00","","2.00","","","","100.63","","","","","","NA"
"2012-10-07 05:00","2012","10","07","05:00"," ","5.70","","3.40","","85.00","","19.00","","4.00","","","","100.74","","","","","","NA"
"2012-10-07 06:00","2012","10","07","06:00"," ","5.80","","3.10","","83.00","","19.00","","2.00","","","","100.80","","","","","","NA"
"2012-10-07 07:00","2012","10","07","07:00"," ","5.90","","2.90","","81.00","","27.00","","4.00","","","","100.85","","","","","","NA"
"2012-10-07 08:00","2012","10","07","08:00"," ","5.20","","2.20","","81.00","","33.00","","2.00","","","","100.84","","","","","","NA"
"2012-10-07 09:00","2012","10","07","09:00"," ","6.70","","2.20","","73.00","","1.00","","9.00","","","","100.84","","","","","","NA"
"2012-10-07 10:00","2012","10","07","10:00"," ","7.80","","1.60","","65.00","","27.00","","4.00","","","","100.85","","","","","","NA"
"2012-10-07 11:00","2012","10","07","11:00"," ","8.70","","3.50","","70.00","","32.00","","4.00","","","","100.87","","","","","","NA"
"2012-10-07 12:00","2012","10","07","12:00"," ","9.80","","1.60","","57.00","","20.00","","6.00","","","","100.88","","","","","","NA"
"2012-10-07 13:00","2012","10","07","13:00"," ","9.30","","-0.20","","51.00","","23.00","","9.00","","","","100.87","","","","","","NA"
"2012-10-07 14:00","2012","10","07","14:00"," ","8.70","","-1.10","","50.00","","28.00","","6.00","","","","100.83","","","","","","NA"
"2012-10-07 15:00","2012","10","07","15:00"," ","9.50","","-0.50","","50.00","","28.00","","6.00","","","","100.80","","","","","","NA"
"2012-10-07 16:00","2012","10","07","16:00"," ","9.10","","-1.50","","47.00","","31.00","","4.00","","","","100.79","","","","","","NA"
"2012-10-07 17:00","2012","10","07","17:00"," ","8.40","","-1.50","","50.00","","34.00","","2.00","","","","100.82","","","","","","NA"
"2012-10-07 18:00","2012","10","07","18:00"," ","7.90","","-1.50","","51.00","","26.00","","2.00","","","","100.83","","","","","","NA"
"2012-10-07 19:00","2012","10","07","19:00"," ","8.00","","-0.90","","53.00","","5.00","","2.00","","","","100.86","","","","","","NA"
"2012-10-07 20:00","2012","10","07","20:00"," ","7.80","","-1.00","","54.00","","33.00","","4.00","","","","100.90","","","","","","NA"
"2012-10-07 21:00","2012","10","07","21:00"," ","7.80","","-0.60","","55.00","","32.00","","6.00","","","","100.90","","","","","","NA"
"2012-10-07 22:00","2012","10","07","22:00"," ","7.20","","0.40","","62.00","","29.00","","2.00","","","","100.94","","","","","","NA"
"2012-10-07 23:00","2012","10","07","23:00"," ","6.90","","-0.10","","61.00","","26.00","","4.00","","","","100.99","","","","","","NA"
"2012-10-08 00:00","2012","10","08","00:00"," ","5.80","","1.80","","75.00","","30.00","","4.00","","","","101.05","","","","","","NA"
"2012-10-08 01:00","2012","10","08","01:00"," ","5.60","","2.10","","78.00","","30.00","","4.00","","","","101.08","","","","","","NA"
"2012-10-08 02:00","2012","10","08","02:00"," ","5.20","","2.50","","83.00","","30.00","","2.00","","","","101.05","","","","","","NA"
"2012-10-08 03:00","2012","10","08","03:00"," ","4.30","","2.10","","86.00","","30.00","","4.00","","","","101.07","","","","","","NA"
"2012-10-08 04:00","2012","10","08","04:00"," ","4.00","","2.20","","88.00","","32.00","","6.00","","","","101.14","","","","","","NA"
"2012-10-08 05:00","2012","10","08","05:00"," ","4.00","","1.80","","86.00","","31.00","","6.00","","","","101.17","","","","","","NA"
"2012-10-08 06:00","2012","10","08","06:00"," ","3.70","","0.90","","82.00","","32.00","","6.00","","","","101.28","","","","","","NA"
"2012-10-08 07:00","2012","10","08","07:00"," ","5.10","","-0.80","","66.00","","34.00","","6.00","","","","101.37","","","","","","NA"
"2012-10-08 08:00","2012","10","08","08:00"," ","6.30","","0.10","","64.00","","2.00","","6.00","","","","101.45","","","","","","NA"
"2012-10-08 09:00","2012","10","08","09:00"," ","7.20","","-1.10","","56.00","","3.00","","4.00","","","","101.48","","","","","","NA"
"2012-10-08 10:00","2012","10","08","10:00"," ","7.90","","-2.80","","47.00","","34.00","","4.00","","","","101.50","","","","","","NA"
"2012-10-08 11:00","2012","10","08","11:00"," ","9.80","","-3.70","","38.00","","19.00","","6.00","","","","101.49","","","","","","NA"
"2012-10-08 12:00","2012","10","08","12:00"," ","11.70","","-2.50","","37.00","","1.00","","4.00","","","","101.48","","","","","","NA"
"2012-10-08 13:00","2012","10","08","13:00"," ","10.90","","-5.30","","32.00","","21.00","","6.00","","","","101.48","","","","","","NA"
"2012-10-08 14:00","2012","10","08","14:00"," ","11.50","","-1.90","","39.00","","22.00","","6.00","","","","101.47","","","","","","NA"
"2012-10-08 15:00","2012","10","08","15:00"," ","12.10","","-1.10","","40.00","","30.00","","4.00","","","","101.45","","","","","","NA"
"2012-10-08 16:00","2012","10","08","16:00"," ","11.30","","-1.00","","42.00","","29.00","","4.00","","","","101.48","","","","","","NA"
"2012-10-08 17:00","2012","10","08","17:00"," ","9.20","","0.80","","56.00","","31.00","","2.00","","","","101.52","","","","","","NA"
"2012-10-08 18:00","2012","10","08","18:00"," ","9.00","","1.70","","60.00","","26.00","","2.00","","","","101.54","","","","","","NA"
"2012-10-08 19:00","2012","10","08","19:00"," ","10.50","","1.60","","54.00","","21.00","","2.00","","","","101.58","","","","","","NA"
"2012-10-08 20:00","2012","10","08","20:00"," ","9.10","","2.10","","62.00","","23.00","","4.00","","","","101.58","","","","","","NA"
"2012-10-08 21:00","2012","10","08","21:00"," ","8.60","","2.40","","65.00","","20.00","","2.00","","","","101.64","","","","","","NA"
"2012-10-08 22:00","2012","10","08","22:00"," ","7.60","","2.50","","70.00","","22.00","","2.00","","","","101.65","","","","","","NA"
"2012-10-08 23:00","2012","10","08","23:00"," ","8.20","","2.20","","66.00","","19.00","","4.00","","","","101.52","","","","","","NA"
"2012-10-09 00:00","2012","10","09","00:00"," ","7.50","","3.20","","74.00","","20.00","","4.00","","","","101.61","","","","","","NA"
"2012-10-09 01:00","2012","10","09","01:00"," ","7.20","","4.10","","81.00","","20.00","","4.00","","","","101.63","","","","","","NA"
"2012-10-09 02:00","2012","10","09","02:00"," ","6.70","","4.30","","85.00","","23.00","","4.00","","","","101.58","","","","","","NA"
"2012-10-09 03:00","2012","10","09","03:00"," ","6.80","","4.10","","83.00","","21.00","","6.00","","","","101.56","","","","","","NA"
"2012-10-09 04:00","2012","10","09","04:00"," ","7.00","","4.50","","84.00","","20.00","","4.00","","","","101.60","","","","","","NA"
"2012-10-09 05:00","2012","10","09","05:00"," ","6.40","","4.30","","86.00","","21.00","","6.00","","","","101.60","","","","","","NA"
"2012-10-09 06:00","2012","10","09","06:00"," ","6.40","","4.50","","88.00","","20.00","","4.00","","","","101.63","","","","","","NA"
"2012-10-09 07:00","2012","10","09","07:00"," ","6.80","","4.30","","84.00","","19.00","","6.00","","","","101.63","","","","","","NA"
"2012-10-09 08:00","2012","10","09","08:00"," ","8.70","","4.90","","77.00","","18.00","","6.00","","","","101.66","","","","","","NA"
"2012-10-09 09:00","2012","10","09","09:00"," ","10.30","","4.90","","69.00","","17.00","","7.00","","","","101.62","","","","","","NA"
"2012-10-09 10:00","2012","10","09","10:00"," ","12.00","","5.60","","65.00","","19.00","","7.00","","","","101.56","","","","","","NA"
"2012-10-09 11:00","2012","10","09","11:00"," ","13.20","","5.30","","59.00","","24.00","","7.00","","","","101.47","","","","","","NA"
"2012-10-09 12:00","2012","10","09","12:00"," ","13.90","","4.30","","52.00","","23.00","","7.00","","","","101.41","","","","","","NA"
"2012-10-09 13:00","2012","10","09","13:00"," ","15.10","","3.40","","45.00","","24.00","","6.00","","","","101.30","","","","","","NA"
"2012-10-09 14:00","2012","10","09","14:00"," ","14.70","","3.40","","47.00","","23.00","","6.00","","","","101.24","","","","","","NA"
"2012-10-09 15:00","2012","10","09","15:00"," ","15.30","","3.60","","45.00","","17.00","","6.00","","","","101.17","","","","","","NA"
"2012-10-09 16:00","2012","10","09","16:00"," ","14.10","","3.40","","48.00","","18.00","","9.00","","","","101.16","","","","","","NA"
"2012-10-09 17:00","2012","10","09","17:00"," ","13.60","","5.20","","57.00","","20.00","","6.00","","","","101.10","","","","","","NA"
"2012-10-09 18:00","2012","10","09","18:00"," ","13.20","","6.00","","62.00","","19.00","","6.00","","","","101.06","","","","","","NA"
"2012-10-09 19:00","2012","10","09","19:00"," ","12.90","","6.20","","64.00","","20.00","","6.00","","","","101.05","","","","","","NA"
"2012-10-09 20:00","2012","10","09","20:00"," ","12.50","","6.70","","68.00","","18.00","","6.00","","","","101.01","","","","","","NA"
"2012-10-09 21:00","2012","10","09","21:00"," ","11.80","","6.90","","72.00","","20.00","","6.00","","","","100.96","","","","","","NA"
"2012-10-09 22:00","2012","10","09","22:00"," ","11.40","","6.90","","74.00","","19.00","","7.00","","","","100.92","","","","","","NA"
"2012-10-09 23:00","2012","10","09","23:00"," ","11.00","","7.20","","77.00","","19.00","","4.00","","","","100.86","","","","","","NA"
"2012-10-10 00:00","2012","10","10","00:00"," ","10.80","","7.70","","81.00","","18.00","","6.00","","","","100.82","","","","","","NA"
"2012-10-10 01:00","2012","10","10","01:00"," ","11.10","","7.90","","81.00","","18.00","","4.00","","","","100.73","","","","","","NA"
"2012-10-10 02:00","2012","10","10","02:00"," ","11.60","","7.90","","78.00","","18.00","","6.00","","","","100.66","","","","","","NA"
"2012-10-10 03:00","2012","10","10","03:00"," ","11.30","","7.60","","78.00","","19.00","","6.00","","","","100.59","","","","","","NA"
"2012-10-10 04:00","2012","10","10","04:00"," ","11.30","","8.30","","82.00","","17.00","","6.00","","","","100.52","","","","","","NA"
"2012-10-10 05:00","2012","10","10","05:00"," ","11.40","","8.50","","82.00","","18.00","","6.00","","","","100.47","","","","","","NA"
"2012-10-10 06:00","2012","10","10","06:00"," ","11.50","","8.60","","82.00","","20.00","","7.00","","","","100.43","","","","","","NA"
"2012-10-10 07:00","2012","10","10","07:00"," ","11.70","","8.50","","81.00","","20.00","","6.00","","","","","M","","","","","NA"
"2012-10-10 08:00","2012","10","10","08:00"," ","11.90","","8.50","","80.00","","19.00","","7.00","","","","100.34","","","","","","NA"
"2012-10-10 09:00","2012","10","10","09:00"," ","12.20","","8.20","","77.00","","20.00","","9.00","","","","100.25","","","","","","NA"
"2012-10-10 10:00","2012","10","10","10:00"," ","13.00","","8.40","","74.00","","19.00","","9.00","","","","100.14","","","","","","NA"
"2012-10-10 11:00","2012","10","10","11:00"," ","13.10","","8.70","","75.00","","19.00","","6.00","","","","100.05","","","","","","NA"
"2012-10-10 12:00","2012","10","10","12:00"," ","13.20","","8.80","","75.00","","19.00","","6.00","","","","99.92","","","","","","NA"
"2012-10-10 13:00","2012","10","10","13:00"," ","12.60","","9.90","","84.00","","19.00","","9.00","","","","99.82","","","","","","NA"
"2012-10-10 14:00","2012","10","10","14:00"," ","12.10","","10.90","","92.00","","19.00","","6.00","","","","99.71","","","","","","NA"
"2012-10-10 15:00","2012","10","10","15:00"," ","13.00","","11.20","","89.00","","19.00","","6.00","","","","99.62","","","","","","NA"
"2012-10-10 16:00","2012","10","10","16:00"," ","13.10","","11.20","","88.00","","22.00","","6.00","","","","99.60","","","","","","NA"
"2012-10-10 17:00","2012","10","10","17:00"," ","11.40","","7.50","","77.00","","20.00","","6.00","","","","99.68","","","","","","NA"
"2012-10-10 18:00","2012","10","10","18:00"," ","9.00","","6.50","","84.00","","19.00","","6.00","","","","99.76","","","","","","NA"
"2012-10-10 19:00","2012","10","10","19:00"," ","8.30","","6.00","","85.00","","24.00","","6.00","","","","99.84","","","","","","NA"
"2012-10-10 20:00","2012","10","10","20:00"," ","7.60","","5.20","","85.00","","18.00","","4.00","","","","99.87","","","","","","NA"
"2012-10-10 21:00","2012","10","10","21:00"," ","7.60","","5.60","","87.00","","19.00","","6.00","","","","99.93","","","","","","NA"
"2012-10-10 22:00","2012","10","10","22:00"," ","8.00","","5.70","","85.00","","15.00","","4.00","","","","99.94","","","","","","NA"
"2012-10-10 23:00","2012","10","10","23:00"," ","7.50","","5.20","","85.00","","21.00","","4.00","","","","99.93","","","","","","NA"
"2012-10-11 00:00","2012","10","11","00:00"," ","7.20","","4.90","","85.00","","19.00","","4.00","","","","99.95","","","","","","NA"
"2012-10-11 01:00","2012","10","11","01:00"," ","6.70","","3.80","","82.00","","22.00","","6.00","","","","99.97","","","","","","NA"
"2012-10-11 02:00","2012","10","11","02:00"," ","6.80","","3.80","","81.00","","15.00","","4.00","","","","100.00","","","","","","NA"
"2012-10-11 03:00","2012","10","11","03:00"," ","6.60","","3.50","","81.00","","25.00","","6.00","","","","100.06","","","","","","NA"
"2012-10-11 04:00","2012","10","11","04:00"," ","6.20","","2.70","","78.00","","20.00","","6.00","","","","100.21","","","","","","NA"
"2012-10-11 05:00","2012","10","11","05:00"," ","5.70","","1.80","","76.00","","25.00","","6.00","","","","100.38","","","","","","NA"
"2012-10-11 06:00","2012","10","11","06:00"," ","5.10","","2.40","","83.00","","21.00","","6.00","","","","100.50","","","","","","NA"
"2012-10-11 07:00","2012","10","11","07:00"," ","5.60","","2.40","","80.00","","25.00","","6.00","","","","100.61","","","","","","NA"
"2012-10-11 08:00","2012","10","11","08:00"," ","6.40","","2.40","","76.00","","22.00","","6.00","","","","100.69","","","","","","NA"
"2012-10-11 09:00","2012","10","11","09:00"," ","7.60","","1.50","","65.00","","26.00","","6.00","","","","100.73","","","","","","NA"
"2012-10-11 10:00","2012","10","11","10:00"," ","7.60","","0.40","","60.00","","27.00","","9.00","","","","100.73","","","","","","NA"
"2012-10-11 11:00","2012","10","11","11:00"," ","7.90","","-0.80","","54.00","","25.00","","7.00","","","","100.75","","","","","","NA"
"2012-10-11 12:00","2012","10","11","12:00"," ","9.10","","-2.00","","46.00","","25.00","","9.00","","","","100.77","","","","","","NA"
"2012-10-11 13:00","2012","10","11","13:00"," ","8.60","","-1.70","","48.00","","21.00","","6.00","","","","100.76","","","","","","NA"
"2012-10-11 14:00","2012","10","11","14:00"," ","8.90","","-1.90","","47.00","","22.00","","7.00","","","","100.76","","","","","","NA"
"2012-10-11 15:00","2012","10","11","15:00"," ","9.30","","-1.40","","47.00","","21.00","","4.00","","","","100.78","","","","","","NA"
"2012-10-11 16:00","2012","10","11","16:00"," ","9.60","","-2.80","","42.00","","25.00","","6.00","","","","100.75","","","","","","NA"
"2012-10-11 17:00","2012","10","11","17:00"," ","9.00","","-1.90","","46.00","","21.00","","4.00","","","","100.72","","","","","","NA"
"2012-10-11 18:00","2012","10","11","18:00"," ","8.70","","0.30","","56.00","","24.00","","6.00","","","","100.75","","","","","","NA"
"2012-10-11 19:00","2012","10","11","19:00"," ","7.60","","2.40","","70.00","","21.00","","2.00","","","","100.67","","","","","","NA"
"2012-10-11 20:00","2012","10","11","20:00"," ","6.60","","2.80","","77.00","","21.00","","9.00","","","","100.65","","","","","","NA"
"2012-10-11 21:00","2012","10","11","21:00"," ","6.50","","4.10","","85.00","","19.00","","6.00","","","","100.52","","","","","","NA"
"2012-10-11 22:00","2012","10","11","22:00"," ","7.00","","3.60","","79.00","","19.00","","7.00","","","","100.37","","","","","","NA"
"2012-10-11 23:00","2012","10","11","23:00"," ","7.30","","3.60","","77.00","","19.00","","6.00","","","","100.26","","","","","","NA"
"2012-10-12 00:00","2012","10","12","00:00"," ","7.60","","5.10","","84.00","","20.00","","6.00","","","","100.31","","","","","","NA"
"2012-10-12 01:00","2012","10","12","01:00"," ","7.90","","5.30","","84.00","","19.00","","7.00","","","","100.31","","","","","","NA"
"2012-10-12 02:00","2012","10","12","02:00"," ","7.70","","4.50","","80.00","","20.00","","6.00","","","","100.31","","","","","","NA"
"2012-10-12 03:00","2012","10","12","03:00"," ","7.30","","1.80","","68.00","","17.00","","6.00","","","","100.37","","","","","","NA"
"2012-10-12 04:00","2012","10","12","04:00"," ","5.60","","0.00","","67.00","","22.00","","6.00","","","","100.52","","","","","","NA"
"2012-10-12 05:00","2012","10","12","05:00"," ","4.50","","0.00","","73.00","","19.00","","6.00","","","","100.67","","","","","","NA"
"2012-10-12 06:00","2012","10","12","06:00"," ","3.80","","-0.10","","76.00","","20.00","","4.00","","","","100.85","","","","","","NA"
"2012-10-12 07:00","2012","10","12","07:00"," ","3.80","","0.30","","78.00","","0.00","","0.00","","","","100.99","","","","","","NA"
"2012-10-12 08:00","2012","10","12","08:00"," ","4.90","","-0.30","","69.00","","35.00","","7.00","","","","101.12","","","","","","NA"
"2012-10-12 09:00","2012","10","12","09:00"," ","5.10","","-2.00","","60.00","","35.00","","13.00","","","","101.22","","","","","","NA"
"2012-10-12 10:00","2012","10","12","10:00"," ","5.90","","-3.50","","51.00","","1.00","","7.00","","","","101.26","","","","","","NA"
"2012-10-12 11:00","2012","10","12","11:00"," ","6.60","","-3.90","","47.00","","1.00","","11.00","","","","101.29","","","","","","NA"
"2012-10-12 12:00","2012","10","12","12:00"," ","5.30","","-6.20","","43.00","","36.00","","17.00","","","","101.36","","","","","","NA"
"2012-10-12 13:00","2012","10","12","13:00"," ","5.50","","-5.90","","44.00","","36.00","","15.00","","","","101.40","","","","","","NA"
"2012-10-12 14:00","2012","10","12","14:00"," ","5.70","","-6.30","","42.00","","36.00","","13.00","","","","101.47","","","","","","NA"
"2012-10-12 15:00","2012","10","12","15:00"," ","6.10","","-6.40","","40.00","","36.00","","11.00","","","","101.53","","","","","","NA"
"2012-10-12 16:00","2012","10","12","16:00"," ","5.90","","-6.30","","41.00","","36.00","","7.00","","","","101.61","","","","","","NA"
"2012-10-12 17:00","2012","10","12","17:00"," ","5.20","","-6.50","","43.00","","34.00","","6.00","","","","101.67","","","","","","NA"
"2012-10-12 18:00","2012","10","12","18:00"," ","4.20","","-5.10","","51.00","","1.00","","2.00","","","","101.76","","","","","","NA"
"2012-10-12 19:00","2012","10","12","19:00"," ","3.60","","-4.40","","56.00","","32.00","","2.00","","","","101.82","","","","","","NA"
"2012-10-12 20:00","2012","10","12","20:00"," ","3.30","","-4.10","","58.00","","4.00","","2.00","","","","101.89","","","","","","NA"
"2012-10-12 21:00","2012","10","12","21:00"," ","3.10","","-4.30","","58.00","","2.00","","4.00","","","","101.94","","","","","","NA"
"2012-10-12 22:00","2012","10","12","22:00"," ","2.50","","-4.50","","60.00","","34.00","","4.00","","","","102.01","","","","","","NA"
"2012-10-12 23:00","2012","10","12","23:00"," ","2.40","","-5.30","","57.00","","30.00","","2.00","","","","102.03","","","","","","NA"
"2012-10-13 00:00","2012","10","13","00:00"," ","2.10","","-4.60","","61.00","","19.00","","4.00","","","","102.03","","","","","","NA"
"2012-10-13 01:00","2012","10","13","01:00"," ","1.80","","-4.10","","65.00","","19.00","","2.00","","","","102.05","","","","","","NA"
"2012-10-13 02:00","2012","10","13","02:00"," ","1.50","","-4.60","","64.00","","26.00","","2.00","","","","102.02","","","","","","NA"
"2012-10-13 03:00","2012","10","13","03:00"," ","1.30","","-4.50","","65.00","","28.00","","6.00","","","","102.04","","","","","","NA"
"2012-10-13 04:00","2012","10","13","04:00"," ","1.10","","-4.40","","67.00","","29.00","","6.00","","","","102.07","","","","","","NA"
"2012-10-13 05:00","2012","10","13","05:00"," ","1.10","","-3.60","","71.00","","27.00","","4.00","","","","102.08","","","","","","NA"
"2012-10-13 06:00","2012","10","13","06:00"," ","1.40","","-3.90","","68.00","","26.00","","2.00","","","","102.10","","","","","","NA"
"2012-10-13 07:00","2012","10","13","07:00"," ","2.30","","-2.30","","72.00","","19.00","","4.00","","","","102.10","","","","","","NA"
"2012-10-13 08:00","2012","10","13","08:00"," ","3.10","","-0.90","","75.00","","20.00","","4.00","","","","102.13","","","","","","NA"
"2012-10-13 09:00","2012","10","13","09:00"," ","5.80","","0.20","","67.00","","22.00","","6.00","","","","102.11","","","","","","NA"
"2012-10-13 10:00","2012","10","13","10:00"," ","7.00","","-0.90","","57.00","","25.00","","6.00","","","","102.06","","","","","","NA"
"2012-10-13 11:00","2012","10","13","11:00"," ","8.00","","-1.20","","52.00","","22.00","","7.00","","","","102.03","","","","","","NA"
"2012-10-13 12:00","2012","10","13","12:00"," ","8.90","","-3.00","","43.00","","24.00","","7.00","","","","101.92","","","","","","NA"
"2012-10-13 13:00","2012","10","13","13:00"," ","9.50","","-2.80","","42.00","","23.00","","7.00","","","","101.82","","","","","","NA"
"2012-10-13 14:00","2012","10","13","14:00"," ","9.40","","-2.70","","42.00","","26.00","","6.00","","","","101.77","","","","","","NA"
"2012-10-13 15:00","2012","10","13","15:00"," ","9.20","","-1.60","","47.00","","22.00","","6.00","","","","101.74","","","","","","NA"
"2012-10-13 16:00","2012","10","13","16:00"," ","9.00","","-2.50","","44.00","","22.00","","4.00","","","","101.71","","","","","","NA"
"2012-10-13 17:00","2012","10","13","17:00"," ","8.70","","-2.80","","44.00","","21.00","","6.00","","","","101.66","","","","","","NA"
"2012-10-13 18:00","2012","10","13","18:00"," ","7.50","","-1.20","","54.00","","27.00","","2.00","","","","101.59","","","","","","NA"
"2012-10-13 19:00","2012","10","13","19:00"," ","8.80","","-1.90","","47.00","","19.00","","4.00","","","","101.51","","","","","","NA"
"2012-10-13 20:00","2012","10","13","20:00"," ","8.70","","-1.90","","47.00","","17.00","","6.00","","","","101.43","","","","","","NA"
"2012-10-13 21:00","2012","10","13","21:00"," ","8.40","","-2.10","","48.00","","15.00","","6.00","","","","101.32","","","","","","NA"
"2012-10-13 22:00","2012","10","13","22:00"," ","8.00","","-0.40","","55.00","","20.00","","7.00","","","","101.32","","","","","","NA"
"2012-10-13 23:00","2012","10","13","23:00"," ","6.20","","1.40","","71.00","","23.00","","6.00","","","","101.33","","","","","","NA"
"2012-10-14 00:00","2012","10","14","00:00"," ","4.90","","3.20","","89.00","","20.00","","9.00","","","","101.27","","","","","","NA"
"2012-10-14 01:00","2012","10","14","01:00"," ","4.60","","3.00","","89.00","","17.00","","9.00","","","","101.12","","","","","","NA"
"2012-10-14 02:00","2012","10","14","02:00"," ","4.50","","3.20","","91.00","","16.00","","7.00","","","","100.46","","","","","","NA"
"2012-10-14 03:00","2012","10","14","03:00"," ","4.30","","3.30","","93.00","","19.00","","4.00","","","","100.49","","","","","","NA"
"2012-10-14 04:00","2012","10","14","04:00"," ","4.70","","4.00","","95.00","","16.00","","6.00","","","","100.26","","","","","","NA"
"2012-10-14 05:00","2012","10","14","05:00"," ","5.60","","4.80","","95.00","","18.00","","6.00","","","","100.63","","","","","","NA"
"2012-10-14 06:00","2012","10","14","06:00"," ","5.90","","5.00","","94.00","","18.00","","6.00","","","","","M","","","","","NA"
"2012-10-14 07:00","2012","10","14","07:00"," ","6.30","","5.40","","94.00","","18.00","","6.00","","","","100.73","","","","","","NA"
"2012-10-14 08:00","2012","10","14","08:00"," ","6.50","","5.70","","95.00","","19.00","","6.00","","","","100.69","","","","","","NA"
"2012-10-14 09:00","2012","10","14","09:00"," ","7.10","","6.10","","93.00","","20.00","","6.00","","","","100.61","","","","","","NA"
"2012-10-14 10:00","2012","10","14","10:00"," ","7.80","","6.60","","92.00","","20.00","","4.00","","","","100.69","","","","","","NA"
"2012-10-14 11:00","2012","10","14","11:00"," ","8.20","","7.10","","93.00","","16.00","","4.00","","","","100.30","","","","","","NA"
"2012-10-14 12:00","2012","10","14","12:00"," ","8.60","","7.80","","95.00","","19.00","","6.00","","","","100.53","","","","","","NA"
"2012-10-14 13:00","2012","10","14","13:00"," ","8.40","","7.70","","95.00","","5.00","","4.00","","","","100.46","","","","","","NA"
"2012-10-14 14:00","2012","10","14","14:00"," ","8.50","","8.00","","97.00","","3.00","","4.00","","","","100.41","","","","","","NA"
"2012-10-14 15:00","2012","10","14","15:00"," ","9.50","","9.00","","97.00","","11.00","","4.00","","","","100.26","","","","","","NA"
"2012-10-14 16:00","2012","10","14","16:00"," ","9.80","","9.20","","96.00","","14.00","","2.00","","","","100.17","","","","","","NA"
"2012-10-14 17:00","2012","10","14","17:00"," ","9.50","","9.00","","97.00","","36.00","","9.00","","","","100.28","","","","","","NA"
"2012-10-14 18:00","2012","10","14","18:00"," ","9.50","","9.10","","97.00","","13.00","","6.00","","","","100.14","","","","","","NA"
"2012-10-14 19:00","2012","10","14","19:00"," ","9.40","","9.00","","97.00","","1.00","","6.00","","","","100.09","","","","","","NA"
"2012-10-14 20:00","2012","10","14","20:00"," ","9.50","","9.10","","97.00","","2.00","","4.00","","","","99.96","","","","","","NA"
"2012-10-14 21:00","2012","10","14","21:00"," ","10.40","","9.90","","97.00","","8.00","","4.00","","","","99.83","","","","","","NA"
"2012-10-14 22:00","2012","10","14","22:00"," ","10.90","","10.40","","97.00","","21.00","","2.00","","","","99.75","","","","","","NA"
"2012-10-14 23:00","2012","10","14","23:00"," ","9.90","","9.40","","97.00","","3.00","","6.00","","","","99.72","","","","","","NA"
"2012-10-15 00:00","2012","10","15","00:00"," ","9.50","","9.10","","97.00","","1.00","","6.00","","","","99.65","","","","","","NA"
"2012-10-15 01:00","2012","10","15","01:00"," ","9.70","","9.30","","97.00","","0.00","","0.00","","","","99.59","","","","","","NA"
"2012-10-15 02:00","2012","10","15","02:00"," ","10.30","","9.90","","97.00","","5.00","","2.00","","","","99.47","","","","","","NA"
"2012-10-15 03:00","2012","10","15","03:00"," ","12.70","","12.30","","97.00","","21.00","","4.00","","","","99.39","","","","","","NA"
"2012-10-15 04:00","2012","10","15","04:00"," ","13.20","","12.30","","94.00","","20.00","","6.00","","","","99.26","","","","","","NA"
"2012-10-15 05:00","2012","10","15","05:00"," ","13.40","","11.80","","90.00","","19.00","","6.00","","","","99.23","","","","","","NA"
"2012-10-15 06:00","2012","10","15","06:00"," ","13.70","","11.60","","87.00","","20.00","","6.00","","","","99.17","","","","","","NA"
"2012-10-15 07:00","2012","10","15","07:00"," ","13.90","","11.40","","85.00","","19.00","","6.00","","","","99.14","","","","","","NA"
"2012-10-15 08:00","2012","10","15","08:00"," ","14.40","","11.50","","83.00","","19.00","","6.00","","","","99.03","","","","","","NA"
"2012-10-15 09:00","2012","10","15","09:00"," ","15.50","","12.10","","80.00","","18.00","","6.00","","","","99.12","","","","","","NA"
"2012-10-15 10:00","2012","10","15","10:00"," ","17.00","","12.80","","76.00","","18.00","","7.00","","","","99.10","","","","","","NA"
"2012-10-15 11:00","2012","10","15","11:00"," ","16.20","","12.90","","81.00","","20.00","","7.00","","","","99.16","","","","","","NA"
"2012-10-15 12:00","2012","10","15","12:00"," ","16.30","","11.40","","73.00","","24.00","","7.00","","","","99.18","","","","","","NA"
"2012-10-15 13:00","2012","10","15","13:00"," ","17.20","","11.10","","67.00","","21.00","","13.00","","","","99.17","","","","","","NA"
"2012-10-15 14:00","2012","10","15","14:00"," ","17.20","","9.50","","61.00","","21.00","","9.00","","","","99.19","","","","","","NA"
"2012-10-15 15:00","2012","10","15","15:00"," ","16.30","","8.90","","62.00","","21.00","","7.00","","","","99.22","","","","","","NA"
"2012-10-15 16:00","2012","10","15","16:00"," ","15.30","","9.00","","66.00","","20.00","","9.00","","","","99.27","","","","","","NA"
"2012-10-15 17:00","2012","10","15","17:00"," ","14.60","","8.60","","67.00","","22.00","","7.00","","","","99.25","","","","","","NA"
"2012-10-15 18:00","2012","10","15","18:00"," ","13.70","","8.80","","72.00","","21.00","","7.00","","","","99.25","","","","","","NA"
"2012-10-15 19:00","2012","10","15","19:00"," ","12.80","","8.50","","75.00","","21.00","","7.00","","","","99.28","","","","","","NA"
"2012-10-15 20:00","2012","10","15","20:00"," ","12.50","","7.70","","73.00","","22.00","","9.00","","","","99.31","","","","","","NA"
"2012-10-15 21:00","2012","10","15","21:00"," ","11.90","","6.80","","71.00","","21.00","","7.00","","","","99.31","","","","","","NA"
"2012-10-15 22:00","2012","10","15","22:00"," ","11.80","","6.50","","70.00","","22.00","","7.00","","","","99.28","","","","","","NA"
"2012-10-15 23:00","2012","10","15","23:00"," ","11.70","","5.20","","64.00","","22.00","","7.00","","","","99.32","","","","","","NA"
"2012-10-16 00:00","2012","10","16","00:00"," ","10.70","","4.10","","64.00","","23.00","","6.00","","","","99.38","","","","","","NA"
"2012-10-16 01:00","2012","10","16","01:00"," ","9.60","","4.00","","68.00","","21.00","","7.00","","","","99.44","","","","","","NA"
"2012-10-16 02:00","2012","10","16","02:00"," ","7.90","","1.80","","65.00","","21.00","","6.00","","","","99.43","","","","","","NA"
"2012-10-16 03:00","2012","10","16","03:00"," ","6.90","","2.50","","74.00","","22.00","","6.00","","","","99.45","","","","","","NA"
"2012-10-16 04:00","2012","10","16","04:00"," ","6.80","","3.20","","78.00","","25.00","","7.00","","","","99.47","","","","","","NA"
"2012-10-16 05:00","2012","10","16","05:00"," ","6.20","","3.00","","80.00","","25.00","","6.00","","","","99.53","","","","","","NA"
"2012-10-16 06:00","2012","10","16","06:00"," ","5.60","","1.40","","74.00","","16.00","","6.00","","","","99.60","","","","","","NA"
"2012-10-16 07:00","2012","10","16","07:00"," ","5.00","","1.00","","75.00","","23.00","","4.00","","","","99.70","","","","","","NA"
"2012-10-16 08:00","2012","10","16","08:00"," ","5.90","","0.90","","70.00","","31.00","","6.00","","","","99.78","","","","","","NA"
"2012-10-16 09:00","2012","10","16","09:00"," ","6.50","","1.20","","69.00","","29.00","","4.00","","","","99.80","","","","","","NA"
"2012-10-16 10:00","2012","10","16","10:00"," ","7.00","","1.20","","67.00","","3.00","","11.00","","","","99.84","","","","","","NA"
"2012-10-16 11:00","2012","10","16","11:00"," ","7.70","","1.10","","63.00","","7.00","","4.00","","","","99.85","","","","","","NA"
"2012-10-16 12:00","2012","10","16","12:00"," ","8.50","","1.10","","60.00","","3.00","","6.00","","","","99.87","","","","","","NA"
"2012-10-16 13:00","2012","10","16","13:00"," ","8.20","","1.00","","60.00","","31.00","","9.00","","","","99.90","","","","","","NA"
"2012-10-16 14:00","2012","10","16","14:00"," ","8.70","","0.90","","58.00","","29.00","","6.00","","","","99.91","","","","","","NA"
"2012-10-16 15:00","2012","10","16","15:00"," ","8.80","","0.70","","57.00","","28.00","","6.00","","","","99.93","","","","","","NA"
"2012-10-16 16:00","2012","10","16","16:00"," ","8.10","","-0.10","","56.00","","26.00","","6.00","","","","99.97","","","","","","NA"
"2012-10-16 17:00","2012","10","16","17:00"," ","7.20","","-0.30","","59.00","","1.00","","2.00","","","","100.01","","","","","","NA"
"2012-10-16 18:00","2012","10","16","18:00"," ","6.80","","-0.50","","60.00","","22.00","","2.00","","","","100.09","","","","","","NA"
"2012-10-16 19:00","2012","10","16","19:00"," ","5.80","","-0.40","","64.00","","34.00","","2.00","","","","100.13","","","","","","NA"
"2012-10-16 20:00","2012","10","16","20:00"," ","6.10","","-0.10","","64.00","","9.00","","2.00","","","","100.18","","","","","","NA"
"2012-10-16 21:00","2012","10","16","21:00"," ","5.10","","-1.00","","65.00","","10.00","","2.00","","","","100.22","","","","","","NA"
"2012-10-16 22:00","2012","10","16","22:00"," ","4.90","","-0.80","","67.00","","26.00","","2.00","","","","100.28","","","","","","NA"
"2012-10-16 23:00","2012","10","16","23:00"," ","3.20","","-0.40","","77.00","","23.00","","2.00","","","","100.30","","","","","","NA"
"2012-10-17 00:00","2012","10","17","00:00"," ","3.40","","0.50","","81.00","","26.00","","4.00","","","","100.35","","","","","","NA"
"2012-10-17 01:00","2012","10","17","01:00"," ","3.00","","0.70","","85.00","","24.00","","2.00","","","","100.42","","","","","","NA"
"2012-10-17 02:00","2012","10","17","02:00"," ","3.60","","1.40","","86.00","","30.00","","4.00","","","","100.46","","","","","","NA"
"2012-10-17 03:00","2012","10","17","03:00"," ","3.40","","0.00","","78.00","","29.00","","4.00","","","","100.48","","","","","","NA"
"2012-10-17 04:00","2012","10","17","04:00"," ","4.30","","0.10","","74.00","","21.00","","2.00","","","","100.52","","","","","","NA"
"2012-10-17 05:00","2012","10","17","05:00"," ","4.40","","-0.20","","72.00","","21.00","","2.00","","","","100.51","","","","","","NA"
"2012-10-17 06:00","2012","10","17","06:00"," ","3.70","","0.70","","81.00","","22.00","","4.00","","","","100.54","","","","","","NA"
"2012-10-17 07:00","2012","10","17","07:00"," ","4.60","","1.80","","82.00","","28.00","","6.00","","","","100.58","","","","","","NA"
"2012-10-17 08:00","2012","10","17","08:00"," ","6.50","","0.80","","67.00","","28.00","","6.00","","","","100.63","","","","","","NA"
"2012-10-17 09:00","2012","10","17","09:00"," ","","","","","","","","","","","","","","","","","","",""
"2012-10-17 10:00","2012","10","17","10:00"," ","","","","","","","","","","","","","","","","","","",""
"2012-10-17 11:00","2012","10","17","11:00"," ","","","","","","","","","","","","","","","","","","",""
"2012-10-17 12:00","2012","10","17","12:00"," ","11.20","","1.60","","52.00","","24.00","","7.00","","","","100.53","","","","","","NA"
"2012-10-17 13:00","2012","10","17","13:00"," ","11.70","","2.80","","54.00","","21.00","","6.00","","","","100.46","","","","","","NA"
"2012-10-17 14:00","2012","10","17","14:00"," ","11.60","","1.50","","50.00","","23.00","","6.00","","","","100.46","","","","","","NA"
"2012-10-17 15:00","2012","10","17","15:00"," ","13.10","","1.80","","46.00","","24.00","","6.00","","","","100.43","","","","","","NA"
"2012-10-17 16:00","2012","10","17","16:00"," ","12.30","","2.70","","52.00","","20.00","","6.00","","","","100.46","","","","","","NA"
"2012-10-17 17:00","2012","10","17","17:00"," ","11.70","","2.70","","54.00","","21.00","","6.00","","","","100.45","","","","","","NA"
"2012-10-17 18:00","2012","10","17","18:00"," ","11.60","","3.40","","57.00","","22.00","","6.00","","","","100.53","","","","","","NA"
"2012-10-17 19:00","2012","10","17","19:00"," ","11.70","","2.40","","53.00","","21.00","","6.00","","","","100.51","","","","","","NA"
"2012-10-17 20:00","2012","10","17","20:00"," ","11.60","","2.50","","54.00","","21.00","","4.00","","","","100.53","","","","","","NA"
"2012-10-17 21:00","2012","10","17","21:00"," ","11.70","","3.40","","57.00","","20.00","","4.00","","","","100.53","","","","","","NA"
"2012-10-17 22:00","2012","10","17","22:00"," ","11.40","","3.60","","59.00","","20.00","","4.00","","","","100.53","","","","","","NA"
"2012-10-17 23:00","2012","10","17","23:00"," ","11.30","","3.50","","59.00","","23.00","","6.00","","","","100.51","","","","","","NA"
"2012-10-18 00:00","2012","10","18","00:00"," ","11.00","","4.00","","62.00","","22.00","","6.00","","","","100.51","","","","","","NA"
"2012-10-18 01:00","2012","10","18","01:00"," ","10.90","","4.60","","65.00","","20.00","","4.00","","","","100.51","","","","","","NA"
"2012-10-18 02:00","2012","10","18","02:00"," ","10.40","","5.00","","69.00","","21.00","","2.00","","","","100.50","","","","","","NA"
"2012-10-18 03:00","2012","10","18","03:00"," ","9.50","","5.50","","76.00","","0.00","","0.00","","","","100.49","","","","","","NA"
"2012-10-18 04:00","2012","10","18","04:00"," ","9.70","","4.90","","72.00","","0.00","","0.00","","","","100.51","","","","","","NA"
"2012-10-18 05:00","2012","10","18","05:00"," ","10.50","","5.00","","69.00","","0.00","","0.00","","","","100.54","","","","","","NA"
"2012-10-18 06:00","2012","10","18","06:00"," ","10.90","","5.00","","67.00","","21.00","","4.00","","","","100.58","","","","","","NA"
"2012-10-18 07:00","2012","10","18","07:00"," ","11.10","","5.20","","67.00","","18.00","","4.00","","","","100.57","","","","","","NA"
"2012-10-18 08:00","2012","10","18","08:00"," ","12.30","","5.50","","63.00","","19.00","","4.00","","","","100.63","","","","","","NA"
"2012-10-18 09:00","2012","10","18","09:00"," ","13.60","","6.40","","62.00","","16.00","","6.00","","","","100.60","","","","","","NA"
"2012-10-18 10:00","2012","10","18","10:00"," ","15.90","","5.50","","50.00","","18.00","","9.00","","","","100.58","","","","","","NA"
"2012-10-18 11:00","2012","10","18","11:00"," ","17.70","","5.60","","45.00","","16.00","","9.00","","","","100.55","","","","","","NA"
"2012-10-18 12:00","2012","10","18","12:00"," ","17.60","","4.30","","41.00","","16.00","","9.00","","","","100.51","","","","","","NA"
"2012-10-18 13:00","2012","10","18","13:00"," ","18.40","","3.90","","38.00","","15.00","","6.00","","","","100.45","","","","","","NA"
"2012-10-18 14:00","2012","10","18","14:00"," ","19.30","","0.20","","28.00","","18.00","","9.00","","","","100.41","","","","","","NA"
"2012-10-18 15:00","2012","10","18","15:00"," ","19.30","","0.50","","28.00","","16.00","","9.00","","","","100.40","","","","","","NA"
"2012-10-18 16:00","2012","10","18","16:00"," ","17.80","","2.60","","36.00","","20.00","","6.00","","","","100.36","","","","","","NA"
"2012-10-18 17:00","2012","10","18","17:00"," ","17.10","","4.30","","43.00","","19.00","","4.00","","","","100.37","","","","","","NA"
"2012-10-18 18:00","2012","10","18","18:00"," ","16.20","","5.20","","48.00","","20.00","","6.00","","","","100.44","","","","","","NA"
"2012-10-18 19:00","2012","10","18","19:00"," ","15.60","","5.50","","51.00","","19.00","","6.00","","","","100.48","","","","","","NA"
"2012-10-18 20:00","2012","10","18","20:00"," ","15.00","","6.00","","55.00","","20.00","","6.00","","","","100.53","","","","","","NA"
"2012-10-18 21:00","2012","10","18","21:00"," ","14.50","","5.40","","54.00","","20.00","","6.00","","","","100.57","","","","","","NA"
"2012-10-18 22:00","2012","10","18","22:00"," ","14.10","","5.10","","55.00","","21.00","","6.00","","","","100.60","","","","","","NA"
"2012-10-18 23:00","2012","10","18","23:00"," ","13.40","","5.00","","57.00","","20.00","","6.00","","","","100.58","","","","","","NA"
"2012-10-19 00:00","2012","10","19","00:00"," ","12.90","","4.70","","57.00","","20.00","","6.00","","","","100.57","","","","","","NA"
"2012-10-19 01:00","2012","10","19","01:00"," ","12.60","","4.70","","59.00","","21.00","","6.00","","","","100.57","","","","","","NA"
"2012-10-19 02:00","2012","10","19","02:00"," ","12.50","","5.20","","61.00","","21.00","","6.00","","","","100.55","","","","","","NA"
"2012-10-19 03:00","2012","10","19","03:00"," ","12.20","","5.90","","65.00","","20.00","","6.00","","","","100.60","","","","","","NA"
"2012-10-19 04:00","2012","10","19","04:00"," ","12.10","","6.40","","68.00","","20.00","","6.00","","","","100.57","","","","","","NA"
"2012-10-19 05:00","2012","10","19","05:00"," ","12.10","","7.70","","74.00","","20.00","","6.00","","","","100.58","","","","","","NA"
"2012-10-19 06:00","2012","10","19","06:00"," ","11.30","","9.20","","87.00","","19.00","","6.00","","","","100.56","","","","","","NA"
"2012-10-19 07:00","2012","10","19","07:00"," ","11.40","","9.70","","89.00","","18.00","","6.00","","","","100.61","","","","","","NA"
"2012-10-19 08:00","2012","10","19","08:00"," ","11.70","","10.20","","91.00","","14.00","","4.00","","","","100.55","","","","","","NA"
"2012-10-19 09:00","2012","10","19","09:00"," ","12.80","","10.70","","87.00","","15.00","","7.00","","","","100.43","","","","","","NA"
"2012-10-19 10:00","2012","10","19","10:00"," ","13.00","","11.10","","88.00","","19.00","","4.00","","","","100.43","","","","","","NA"
"2012-10-19 11:00","2012","10","19","11:00"," ","13.00","","11.40","","90.00","","17.00","","6.00","","","","100.38","","","","","","NA"
"2012-10-19 12:00","2012","10","19","12:00"," ","13.00","","11.90","","93.00","","19.00","","6.00","","","","100.37","","","","","","NA"
"2012-10-19 13:00","2012","10","19","13:00"," ","13.10","","12.10","","94.00","","16.00","","4.00","","","","100.27","","","","","","NA"
"2012-10-19 14:00","2012","10","19","14:00"," ","13.30","","12.30","","94.00","","14.00","","4.00","","","","100.15","","","","","","NA"
"2012-10-19 15:00","2012","10","19","15:00"," ","13.10","","12.10","","94.00","","13.00","","6.00","","","","100.04","","","","","","NA"
"2012-10-19 16:00","2012","10","19","16:00"," ","13.10","","12.10","","94.00","","36.00","","6.00","","","","100.01","","","","","","NA"
"2012-10-19 17:00","2012","10","19","17:00"," ","12.80","","12.20","","96.00","","4.00","","6.00","","","","99.99","","","","","","NA"
"2012-10-19 18:00","2012","10","19","18:00"," ","12.60","","12.10","","97.00","","3.00","","6.00","","","","99.93","","","","","","NA"
"2012-10-19 19:00","2012","10","19","19:00"," ","13.50","","13.10","","97.00","","24.00","","2.00","","","","99.88","","","","","","NA"
"2012-10-19 20:00","2012","10","19","20:00"," ","13.50","","12.90","","96.00","","5.00","","4.00","","","","99.82","","","","","","NA"
"2012-10-19 21:00","2012","10","19","21:00"," ","13.20","","12.70","","97.00","","13.00","","4.00","","","","99.76","","","","","","NA"
"2012-10-19 22:00","2012","10","19","22:00"," ","12.90","","12.30","","96.00","","2.00","","6.00","","","","99.74","","","","","","NA"
"2012-10-19 23:00","2012","10","19","23:00"," ","12.80","","12.30","","97.00","","1.00","","6.00","","","","99.72","","","","","","NA"
"2012-10-20 00:00","2012","10","20","00:00"," ","12.70","","12.20","","97.00","","3.00","","6.00","","","","99.62","","","","","","NA"
"2012-10-20 01:00","2012","10","20","01:00"," ","12.50","","12.10","","97.00","","2.00","","6.00","","","","99.56","","","","","","NA"
"2012-10-20 02:00","2012","10","20","02:00"," ","12.50","","12.20","","98.00","","3.00","","6.00","","","","99.47","","","","","","NA"
"2012-10-20 03:00","2012","10","20","03:00"," ","13.40","","13.10","","98.00","","15.00","","7.00","","","","99.43","","","","","","NA"
"2012-10-20 04:00","2012","10","20","04:00"," ","13.30","","12.90","","97.00","","1.00","","2.00","","","","99.25","","","","","","NA"
"2012-10-20 05:00","2012","10","20","05:00"," ","13.20","","12.70","","97.00","","2.00","","2.00","","","","99.40","","","","","","NA"
"2012-10-20 06:00","2012","10","20","06:00"," ","13.40","","13.00","","97.00","","0.00","","0.00","","","","99.42","","","","","","NA"
"2012-10-20 07:00","2012","10","20","07:00"," ","13.80","","13.30","","97.00","","20.00","","6.00","","","","99.45","","","","","","NA"
"2012-10-20 08:00","2012","10","20","08:00"," ","14.30","","13.10","","92.00","","19.00","","4.00","","","","99.44","","","","","","NA"
"2012-10-20 09:00","2012","10","20","09:00"," ","14.80","","12.90","","88.00","","20.00","","4.00","","","","","M","","","","","NA"
"2012-10-20 10:00","2012","10","20","10:00"," ","16.10","","13.00","","82.00","","25.00","","6.00","","","","99.45","","","","","","NA"
"2012-10-20 11:00","2012","10","20","11:00"," ","16.50","","13.00","","80.00","","22.00","","6.00","","","","99.49","","","","","","NA"
"2012-10-20 12:00","2012","10","20","12:00"," ","17.80","","12.30","","70.00","","22.00","","6.00","","","","99.46","","","","","","NA"
"2012-10-20 13:00","2012","10","20","13:00"," ","17.10","","11.50","","70.00","","34.00","","6.00","","","","99.35","","","","","","NA"
"2012-10-20 14:00","2012","10","20","14:00"," ","17.50","","10.40","","63.00","","26.00","","6.00","","","","99.35","","","","","","NA"
"2012-10-20 15:00","2012","10","20","15:00"," ","16.50","","9.90","","65.00","","33.00","","7.00","","","","99.31","","","","","","NA"
"2012-10-20 16:00","2012","10","20","16:00"," ","13.70","","9.80","","77.00","","20.00","","6.00","","","","99.46","","","","","","NA"
"2012-10-20 17:00","2012","10","20","17:00"," ","12.60","","9.90","","84.00","","31.00","","2.00","","","","99.52","","","","","","NA"
"2012-10-20 18:00","2012","10","20","18:00"," ","11.40","","8.00","","80.00","","20.00","","2.00","","","","99.58","","","","","","NA"
"2012-10-20 19:00","2012","10","20","19:00"," ","11.40","","6.70","","73.00","","28.00","","2.00","","","","99.63","","","","","","NA"
"2012-10-20 20:00","2012","10","20","20:00"," ","11.50","","6.00","","69.00","","20.00","","6.00","","","","99.63","","","","","","NA"
"2012-10-20 21:00","2012","10","20","21:00"," ","10.80","","6.60","","75.00","","21.00","","4.00","","","","99.64","","","","","","NA"
"2012-10-20 22:00","2012","10","20","22:00"," ","10.20","","6.10","","76.00","","19.00","","6.00","","","","99.62","","","","","","NA"
"2012-10-20 23:00","2012","10","20","23:00"," ","9.30","","5.80","","79.00","","21.00","","6.00","","","","99.64","","","","","","NA"
"2012-10-21 00:00","2012","10","21","00:00"," ","8.60","","5.80","","83.00","","17.00","","6.00","","","","99.65","","","","","","NA"
"2012-10-21 01:00","2012","10","21","01:00"," ","9.30","","6.60","","83.00","","19.00","","6.00","","","","99.71","","","","","","NA"
"2012-10-21 02:00","2012","10","21","02:00"," ","9.80","","6.80","","82.00","","20.00","","6.00","","","","99.72","","","","","","NA"
"2012-10-21 03:00","2012","10","21","03:00"," ","10.10","","6.80","","80.00","","19.00","","7.00","","","","99.70","","","","","","NA"
"2012-10-21 04:00","2012","10","21","04:00"," ","9.80","","6.70","","81.00","","19.00","","7.00","","","","99.67","","","","","","NA"
"2012-10-21 05:00","2012","10","21","05:00"," ","9.70","","6.90","","83.00","","19.00","","7.00","","","","","M","","","","","NA"
"2012-10-21 06:00","2012","10","21","06:00"," ","9.40","","7.90","","90.00","","20.00","","6.00","","","","99.76","","","","","","NA"
"2012-10-21 07:00","2012","10","21","07:00"," ","9.70","","7.50","","86.00","","20.00","","7.00","","","","99.80","","","","","","NA"
"2012-10-21 08:00","2012","10","21","08:00"," ","10.40","","7.40","","82.00","","21.00","","6.00","","","","99.82","","","","","","NA"
"2012-10-21 09:00","2012","10","21","09:00"," ","10.30","","6.20","","76.00","","21.00","","7.00","","","","99.82","","","","","","NA"
"2012-10-21 10:00","2012","10","21","10:00"," ","10.50","","5.90","","73.00","","21.00","","7.00","","","","99.85","","","","","","NA"
"2012-10-21 11:00","2012","10","21","11:00"," ","11.30","","6.00","","70.00","","18.00","","6.00","","","","99.87","","","","","","NA"
"2012-10-21 12:00","2012","10","21","12:00"," ","12.10","","6.20","","67.00","","19.00","","6.00","","","","99.84","","","","","","NA"
"2012-10-21 13:00","2012","10","21","13:00"," ","12.30","","5.60","","64.00","","23.00","","6.00","","","","99.85","","","","","","NA"
"2012-10-21 14:00","2012","10","21","14:00"," ","12.30","","5.70","","64.00","","26.00","","6.00","","","","99.87","","","","","","NA"
"2012-10-21 15:00","2012","10","21","15:00"," ","11.70","","5.60","","66.00","","24.00","","7.00","","","","99.94","","","","","","NA"
"2012-10-21 16:00","2012","10","21","16:00"," ","11.80","","5.60","","66.00","","27.00","","6.00","","","","99.98","","","","","","NA"
"2012-10-21 17:00","2012","10","21","17:00"," ","11.50","","5.70","","68.00","","25.00","","6.00","","","","100.04","","","","","","NA"
"2012-10-21 18:00","2012","10","21","18:00"," ","11.30","","6.00","","70.00","","21.00","","4.00","","","","100.09","","","","","","NA"
"2012-10-21 19:00","2012","10","21","19:00"," ","11.10","","5.80","","70.00","","26.00","","4.00","","","","100.13","","","","","","NA"
"2012-10-21 20:00","2012","10","21","20:00"," ","11.10","","5.70","","69.00","","16.00","","4.00","","","","100.16","","","","","","NA"
"2012-10-21 21:00","2012","10","21","21:00"," ","10.90","","5.60","","70.00","","19.00","","4.00","","","","100.21","","","","","","NA"
"2012-10-21 22:00","2012","10","21","22:00"," ","10.20","","4.90","","70.00","","27.00","","4.00","","","","100.25","","","","","","NA"
"2012-10-21 23:00","2012","10","21","23:00"," ","9.80","","4.60","","70.00","","23.00","","6.00","","","","100.27","","","","","","NA"
"2012-10-22 00:00","2012","10","22","00:00"," ","8.60","","4.20","","74.00","","26.00","","4.00","","","","100.29","","","","","","NA"
"2012-10-22 01:00","2012","10","22","01:00"," ","8.10","","3.90","","75.00","","18.00","","4.00","","","","100.32","","","","","","NA"
"2012-10-22 02:00","2012","10","22","02:00"," ","7.60","","3.80","","77.00","","27.00","","4.00","","","","100.35","","","","","","NA"
"2012-10-22 03:00","2012","10","22","03:00"," ","7.30","","3.80","","78.00","","22.00","","6.00","","","","100.37","","","","","","NA"
"2012-10-22 04:00","2012","10","22","04:00"," ","7.20","","3.80","","79.00","","22.00","","6.00","","","","100.38","","","","","","NA"
"2012-10-22 05:00","2012","10","22","05:00"," ","7.40","","4.10","","80.00","","23.00","","7.00","","","","100.43","","","","","","NA"
"2012-10-22 06:00","2012","10","22","06:00"," ","7.30","","4.00","","80.00","","27.00","","4.00","","","","100.48","","","","","","NA"
"2012-10-22 07:00","2012","10","22","07:00"," ","7.80","","4.30","","79.00","","23.00","","6.00","","","","100.53","","","","","","NA"
"2012-10-22 08:00","2012","10","22","08:00"," ","9.40","","4.70","","72.00","","31.00","","6.00","","","","100.56","","","","","","NA"
"2012-10-22 09:00","2012","10","22","09:00"," ","9.90","","5.40","","74.00","","33.00","","6.00","","","","100.61","","","","","","NA"
"2012-10-22 10:00","2012","10","22","10:00"," ","11.50","","5.90","","68.00","","23.00","","6.00","","","","100.55","","","","","","NA"
"2012-10-22 11:00","2012","10","22","11:00"," ","12.00","","5.00","","62.00","","1.00","","9.00","","","","100.59","","","","","","NA"
"2012-10-22 12:00","2012","10","22","12:00"," ","12.70","","5.20","","60.00","","34.00","","9.00","","","","100.56","","","","","","NA"
"2012-10-22 13:00","2012","10","22","13:00"," ","14.20","","5.00","","54.00","","2.00","","7.00","","","","100.54","","","","","","NA"
"2012-10-22 14:00","2012","10","22","14:00"," ","14.70","","3.70","","48.00","","35.00","","11.00","","","","100.58","","","","","","NA"
"2012-10-22 15:00","2012","10","22","15:00"," ","14.70","","4.60","","51.00","","30.00","","6.00","","","","100.58","","","","","","NA"
"2012-10-22 16:00","2012","10","22","16:00"," ","13.50","","4.60","","55.00","","25.00","","4.00","","","","100.61","","","","","","NA"
"2012-10-22 17:00","2012","10","22","17:00"," ","13.10","","4.80","","57.00","","25.00","","4.00","","","","100.66","","","","","","NA"
"2012-10-22 18:00","2012","10","22","18:00"," ","12.60","","5.10","","60.00","","18.00","","4.00","","","","100.71","","","","","","NA"
"2012-10-22 19:00","2012","10","22","19:00"," ","11.80","","5.70","","66.00","","24.00","","4.00","","","","100.76","","","","","","NA"
"2012-10-22 20:00","2012","10","22","20:00"," ","11.00","","5.70","","70.00","","23.00","","2.00","","","","100.81","","","","","","NA"
"2012-10-22 21:00","2012","10","22","21:00"," ","10.40","","5.80","","73.00","","36.00","","2.00","","","","100.86","","","","","","NA"
"2012-10-22 22:00","2012","10","22","22:00"," ","","","","","","","","","","","","","","","","","","",""
"2012-10-22 23:00","2012","10","22","23:00"," ","","","","","","","","","","","","","","","","","","",""
"2012-10-23 00:00","2012","10","23","00:00"," ","8.60","","4.90","","78.00","","34.00","","4.00","","","","100.90","","","","","","NA"
"2012-10-23 01:00","2012","10","23","01:00"," ","8.10","","4.40","","77.00","","34.00","","6.00","","","","100.92","","","","","","NA"
"2012-10-23 02:00","2012","10","23","02:00"," ","7.60","","4.20","","79.00","","31.00","","7.00","","","","100.94","","","","","","NA"
"2012-10-23 03:00","2012","10","23","03:00"," ","7.90","","4.00","","76.00","","32.00","","6.00","","","","100.91","","","","","","NA"
"2012-10-23 04:00","2012","10","23","04:00"," ","7.40","","3.90","","78.00","","31.00","","7.00","","","","100.99","","","","","","NA"
"2012-10-23 05:00","2012","10","23","05:00"," ","7.00","","3.60","","79.00","","32.00","","6.00","","","","101.06","","","","","","NA"
"2012-10-23 06:00","2012","10","23","06:00"," ","5.90","","3.40","","84.00","","32.00","","6.00","","","","101.14","","","","","","NA"
"2012-10-23 07:00","2012","10","23","07:00"," ","7.40","","3.90","","78.00","","33.00","","6.00","","","","101.22","","","","","","NA"
"2012-10-23 08:00","2012","10","23","08:00"," ","8.20","","4.10","","75.00","","3.00","","6.00","","","","101.29","","","","","","NA"
"2012-10-23 09:00","2012","10","23","09:00"," ","8.70","","3.20","","68.00","","5.00","","7.00","","","","101.30","","","","","","NA"
"2012-10-23 10:00","2012","10","23","10:00"," ","9.40","","3.40","","66.00","","3.00","","4.00","","","","101.25","","","","","","NA"
"2012-10-23 11:00","2012","10","23","11:00"," ","11.00","","4.30","","63.00","","35.00","","2.00","","","","101.21","","","","","","NA"
"2012-10-23 12:00","2012","10","23","12:00"," ","10.50","","3.40","","61.00","","2.00","","6.00","","","","101.16","","","","","","NA"
"2012-10-23 13:00","2012","10","23","13:00"," ","12.00","","1.40","","48.00","","33.00","","4.00","","","","101.12","","","","","","NA"
"2012-10-23 14:00","2012","10","23","14:00"," ","12.60","","0.30","","43.00","","3.00","","4.00","","","","101.13","","","","","","NA"
"2012-10-23 15:00","2012","10","23","15:00"," ","12.60","","0.30","","43.00","","33.00","","6.00","","","","101.13","","","","","","NA"
"2012-10-23 16:00","2012","10","23","16:00"," ","11.80","","3.00","","55.00","","16.00","","4.00","","","","101.12","","","","","","NA"
"2012-10-23 17:00","2012","10","23","17:00"," ","10.00","","3.50","","64.00","","26.00","","2.00","","","","101.17","","","","","","NA"
"2012-10-23 18:00","2012","10","23","18:00"," ","9.90","","3.60","","65.00","","29.00","","6.00","","","","101.21","","","","","","NA"
"2012-10-23 19:00","2012","10","23","19:00"," ","8.80","","3.70","","70.00","","29.00","","6.00","","","","101.26","","","","","","NA"
"2012-10-23 20:00","2012","10","23","20:00"," ","8.00","","3.60","","74.00","","32.00","","4.00","","","","101.29","","","","","","NA"
"2012-10-23 21:00","2012","10","23","21:00"," ","8.20","","4.10","","75.00","","29.00","","4.00","","","","101.31","","","","","","NA"
"2012-10-23 22:00","2012","10","23","22:00"," ","9.20","","3.80","","69.00","","2.00","","7.00","","","","101.33","","","","","","NA"
"2012-10-23 23:00","2012","10","23","23:00"," ","8.30","","-0.20","","55.00","","2.00","","6.00","","","","101.39","","","","","","NA"
"2012-10-24 00:00","2012","10","24","00:00"," ","7.70","","-0.30","","57.00","","2.00","","7.00","","","","101.38","","","","","","NA"
"2012-10-24 01:00","2012","10","24","01:00"," ","6.90","","-0.40","","60.00","","1.00","","7.00","","","","101.41","","","","","","NA"
"2012-10-24 02:00","2012","10","24","02:00"," ","6.40","","-1.10","","59.00","","3.00","","9.00","","","","101.47","","","","","","NA"
"2012-10-24 03:00","2012","10","24","03:00"," ","5.90","","-0.80","","62.00","","2.00","","6.00","","","","101.48","","","","","","NA"
"2012-10-24 04:00","2012","10","24","04:00"," ","5.40","","-1.40","","62.00","","3.00","","6.00","","","","101.48","","","","","","NA"
"2012-10-24 05:00","2012","10","24","05:00"," ","5.20","","-0.40","","67.00","","2.00","","6.00","","","","101.49","","","","","","NA"
"2012-10-24 06:00","2012","10","24","06:00"," ","5.00","","-0.20","","69.00","","3.00","","6.00","","","","101.50","","","","","","NA"
"2012-10-24 07:00","2012","10","24","07:00"," ","4.60","","-0.10","","72.00","","1.00","","7.00","","","","101.56","","","","","","NA"
"2012-10-24 08:00","2012","10","24","08:00"," ","5.40","","-0.40","","66.00","","4.00","","7.00","","","","101.60","","","","","","NA"
"2012-10-24 09:00","2012","10","24","09:00"," ","6.70","","-0.50","","60.00","","11.00","","7.00","","","","101.59","","","","","","NA"
"2012-10-24 10:00","2012","10","24","10:00"," ","7.00","","-0.20","","60.00","","2.00","","7.00","","","","101.58","","","","","","NA"
"2012-10-24 11:00","2012","10","24","11:00"," ","7.30","","-1.00","","56.00","","4.00","","6.00","","","","101.50","","","","","","NA"
"2012-10-24 12:00","2012","10","24","12:00"," ","8.30","","-0.40","","54.00","","4.00","","4.00","","","","101.43","","","","","","NA"
"2012-10-24 13:00","2012","10","24","13:00"," ","9.80","","-0.10","","50.00","","7.00","","4.00","","","","101.36","","","","","","NA"
"2012-10-24 14:00","2012","10","24","14:00"," ","10.80","","-0.80","","45.00","","4.00","","4.00","","","","101.33","","","","","","NA"
"2012-10-24 15:00","2012","10","24","15:00"," ","10.70","","-2.40","","40.00","","4.00","","7.00","","","","101.33","","","","","","NA"
"2012-10-24 16:00","2012","10","24","16:00"," ","10.80","","-2.60","","39.00","","5.00","","6.00","","","","101.33","","","","","","NA"
"2012-10-24 17:00","2012","10","24","17:00"," ","10.40","","-0.90","","45.00","","5.00","","7.00","","","","101.38","","","","","","NA"
"2012-10-24 18:00","2012","10","24","18:00"," ","10.20","","-0.40","","48.00","","7.00","","6.00","","","","101.42","","","","","","NA"
"2012-10-24 19:00","2012","10","24","19:00"," ","9.90","","-0.10","","50.00","","6.00","","6.00","","","","101.41","","","","","","NA"
"2012-10-24 20:00","2012","10","24","20:00"," ","9.70","","0.00","","51.00","","6.00","","4.00","","","","101.43","","","","","","NA"
"2012-10-24 21:00","2012","10","24","21:00"," ","9.70","","-3.00","","41.00","","1.00","","6.00","","","","101.45","","","","","","NA"
"2012-10-24 22:00","2012","10","24","22:00"," ","8.90","","-1.40","","48.00","","1.00","","6.00","","","","101.45","","","","","","NA"
"2012-10-24 23:00","2012","10","24","23:00"," ","8.90","","-1.40","","48.00","","2.00","","7.00","","","","101.48","","","","","","NA"
"2012-10-25 00:00","2012","10","25","00:00"," ","8.60","","-0.90","","51.00","","3.00","","7.00","","","","101.50","","","","","","NA"
"2012-10-25 01:00","2012","10","25","01:00"," ","8.50","","-1.00","","51.00","","3.00","","6.00","","","","101.52","","","","","","NA"
"2012-10-25 02:00","2012","10","25","02:00"," ","7.70","","-0.30","","57.00","","3.00","","6.00","","","","101.48","","","","","","NA"
"2012-10-25 03:00","2012","10","25","03:00"," ","7.20","","-0.20","","59.00","","3.00","","6.00","","","","101.42","","","","","","NA"
"2012-10-25 04:00","2012","10","25","04:00"," ","6.20","","0.20","","65.00","","2.00","","6.00","","","","101.46","","","","","","NA"
"2012-10-25 05:00","2012","10","25","05:00"," ","5.50","","0.10","","68.00","","3.00","","7.00","","","","101.49","","","","","","NA"
"2012-10-25 06:00","2012","10","25","06:00"," ","4.70","","0.90","","76.00","","3.00","","9.00","","","","101.51","","","","","","NA"
"2012-10-25 07:00","2012","10","25","07:00"," ","4.30","","0.80","","78.00","","1.00","","11.00","","","","101.54","","","","","","NA"
"2012-10-25 08:00","2012","10","25","08:00"," ","4.40","","0.20","","74.00","","1.00","","11.00","","","","101.55","","","","","","NA"
"2012-10-25 09:00","2012","10","25","09:00"," ","5.10","","0.20","","71.00","","1.00","","9.00","","","","101.56","","","","","","NA"
"2012-10-25 10:00","2012","10","25","10:00"," ","6.90","","0.70","","65.00","","36.00","","7.00","","","","101.46","","","","","","NA"
"2012-10-25 11:00","2012","10","25","11:00"," ","9.00","","1.20","","58.00","","2.00","","6.00","","","","101.47","","","","","","NA"
"2012-10-25 12:00","2012","10","25","12:00"," ","10.20","","2.00","","57.00","","3.00","","6.00","","","","101.37","","","","","","NA"
"2012-10-25 13:00","2012","10","25","13:00"," ","11.50","","2.70","","55.00","","3.00","","6.00","","","","101.30","","","","","","NA"
"2012-10-25 14:00","2012","10","25","14:00"," ","12.30","","3.30","","54.00","","1.00","","6.00","","","","101.27","","","","","","NA"
"2012-10-25 15:00","2012","10","25","15:00"," ","12.80","","3.90","","55.00","","4.00","","6.00","","","","101.20","","","","","","NA"
"2012-10-25 16:00","2012","10","25","16:00"," ","12.70","","4.20","","56.00","","2.00","","6.00","","","","100.94","","","","","","NA"
"2012-10-25 17:00","2012","10","25","17:00"," ","12.10","","4.40","","59.00","","4.00","","4.00","","","","101.19","","","","","","NA"
"2012-10-25 18:00","2012","10","25","18:00"," ","11.70","","5.90","","68.00","","35.00","","4.00","","","","101.16","","","","","","NA"
"2012-10-25 19:00","2012","10","25","19:00"," ","10.90","","6.00","","72.00","","34.00","","2.00","","","","101.15","","","","","","NA"
"2012-10-25 20:00","2012","10","25","20:00"," ","12.30","","8.00","","75.00","","21.00","","2.00","","","","101.12","","","","","","NA"
"2012-10-25 21:00","2012","10","25","21:00"," ","12.50","","8.60","","77.00","","17.00","","2.00","","","","101.11","","","","","","NA"
"2012-10-25 22:00","2012","10","25","22:00"," ","13.30","","9.90","","80.00","","20.00","","6.00","","","","101.09","","","","","","NA"
"2012-10-25 23:00","2012","10","25","23:00"," ","13.40","","10.60","","83.00","","21.00","","7.00","","","","101.03","","","","","","NA"
"2012-10-26 00:00","2012","10","26","00:00"," ","13.40","","10.80","","84.00","","20.00","","7.00","","","","101.04","","","","","","NA"
"2012-10-26 01:00","2012","10","26","01:00"," ","13.20","","10.80","","85.00","","21.00","","6.00","","","","101.06","","","","","","NA"
"2012-10-26 02:00","2012","10","26","02:00"," ","13.20","","10.90","","86.00","","20.00","","7.00","","","","101.05","","","","","","NA"
"2012-10-26 03:00","2012","10","26","03:00"," ","12.90","","11.00","","88.00","","21.00","","7.00","","","","101.06","","","","","","NA"
"2012-10-26 04:00","2012","10","26","04:00"," ","12.70","","11.10","","90.00","","20.00","","7.00","","","","101.06","","","","","","NA"
"2012-10-26 05:00","2012","10","26","05:00"," ","12.50","","11.00","","91.00","","20.00","","4.00","","","","101.09","","","","","","NA"
"2012-10-26 06:00","2012","10","26","06:00"," ","12.50","","10.80","","89.00","","19.00","","6.00","","","","101.11","","","","","","NA"
"2012-10-26 07:00","2012","10","26","07:00"," ","12.60","","11.10","","91.00","","20.00","","6.00","","","","101.11","","","","","","NA"
"2012-10-26 08:00","2012","10","26","08:00"," ","13.50","","11.40","","87.00","","19.00","","7.00","","","","101.14","","","","","","NA"
"2012-10-26 09:00","2012","10","26","09:00"," ","14.90","","11.80","","82.00","","20.00","","7.00","","","","101.13","","","","","","NA"
"2012-10-26 10:00","2012","10","26","10:00"," ","16.30","","12.00","","76.00","","21.00","","6.00","","","","101.08","","","","","","NA"
"2012-10-26 11:00","2012","10","26","11:00"," ","17.70","","12.30","","71.00","","17.00","","7.00","","","","101.09","","","","","","NA"
"2012-10-26 12:00","2012","10","26","12:00"," ","18.90","","12.30","","66.00","","14.00","","6.00","","","","101.03","","","","","","NA"
"2012-10-26 13:00","2012","10","26","13:00"," ","19.40","","12.20","","63.00","","19.00","","9.00","","","","100.97","","","","","","NA"
"2012-10-26 14:00","2012","10","26","14:00"," ","19.60","","12.20","","62.00","","18.00","","7.00","","","","100.98","","","","","","NA"
"2012-10-26 15:00","2012","10","26","15:00"," ","18.80","","12.00","","65.00","","17.00","","9.00","","","","100.95","","","","","","NA"
"2012-10-26 16:00","2012","10","26","16:00"," ","17.50","","11.80","","69.00","","20.00","","7.00","","","","100.91","","","","","","NA"
"2012-10-26 17:00","2012","10","26","17:00"," ","16.50","","11.90","","74.00","","19.00","","7.00","","","","100.92","","","","","","NA"
"2012-10-26 18:00","2012","10","26","18:00"," ","15.20","","11.50","","79.00","","20.00","","7.00","","","","100.97","","","","","","NA"
"2012-10-26 19:00","2012","10","26","19:00"," ","14.80","","11.50","","81.00","","19.00","","6.00","","","","100.99","","","","","","NA"
"2012-10-26 20:00","2012","10","26","20:00"," ","14.20","","11.40","","83.00","","20.00","","7.00","","","","101.01","","","","","","NA"
"2012-10-26 21:00","2012","10","26","21:00"," ","13.80","","11.30","","85.00","","21.00","","7.00","","","","100.99","","","","","","NA"
"2012-10-26 22:00","2012","10","26","22:00"," ","13.50","","11.20","","86.00","","21.00","","6.00","","","","101.01","","","","","","NA"
"2012-10-26 23:00","2012","10","26","23:00"," ","13.30","","11.30","","88.00","","19.00","","4.00","","","","101.02","","","","","","NA"
"2012-10-27 00:00","2012","10","27","00:00"," ","13.10","","11.20","","88.00","","20.00","","6.00","","","","101.01","","","","","","NA"
"2012-10-27 01:00","2012","10","27","01:00"," ","13.10","","11.30","","89.00","","26.00","","2.00","","","","100.99","","","","","","NA"
"2012-10-27 02:00","2012","10","27","02:00"," ","13.10","","11.40","","89.00","","0.00","","0.00","","","","100.98","","","","","","NA"
"2012-10-27 03:00","2012","10","27","03:00"," ","12.90","","11.10","","89.00","","2.00","","6.00","","","","100.90","","","","","","NA"
"2012-10-27 04:00","2012","10","27","04:00"," ","12.80","","11.20","","90.00","","0.00","","0.00","","","","100.82","","","","","","NA"
"2012-10-27 05:00","2012","10","27","05:00"," ","12.60","","11.30","","92.00","","36.00","","6.00","","","","100.94","","","","","","NA"
"2012-10-27 06:00","2012","10","27","06:00"," ","12.30","","11.00","","92.00","","3.00","","7.00","","","","101.00","","","","","","NA"
"2012-10-27 07:00","2012","10","27","07:00"," ","12.00","","11.10","","94.00","","4.00","","4.00","","","","100.97","","","","","","NA"
"2012-10-27 08:00","2012","10","27","08:00"," ","","","","","","","","","","","","","","","","","","",""
"2012-10-27 09:00","2012","10","27","09:00"," ","","","","","","","","","","","","","","","","","","",""
"2012-10-27 10:00","2012","10","27","10:00"," ","12.10","","11.10","","94.00","","2.00","","6.00","","","","100.97","","","","","","NA"
"2012-10-27 11:00","2012","10","27","11:00"," ","12.90","","11.20","","89.00","","2.00","","7.00","","","","100.93","","","","","","NA"
"2012-10-27 12:00","2012","10","27","12:00"," ","13.70","","11.30","","85.00","","5.00","","7.00","","","","100.84","","","","","","NA"
"2012-10-27 13:00","2012","10","27","13:00"," ","14.10","","10.80","","81.00","","2.00","","7.00","","","","100.79","","","","","","NA"
"2012-10-27 14:00","2012","10","27","14:00"," ","13.80","","9.60","","76.00","","1.00","","9.00","","","","100.74","","","","","","NA"
"2012-10-27 15:00","2012","10","27","15:00"," ","14.20","","9.30","","72.00","","2.00","","7.00","","","","100.70","","","","","","NA"
"2012-10-27 16:00","2012","10","27","16:00"," ","14.30","","9.30","","72.00","","4.00","","6.00","","","","100.68","","","","","","NA"
"2012-10-27 17:00","2012","10","27","17:00"," ","14.70","","9.40","","71.00","","3.00","","6.00","","","","100.68","","","","","","NA"
"2012-10-27 18:00","2012","10","27","18:00"," ","14.00","","8.50","","69.00","","3.00","","6.00","","","","100.73","","","","","","NA"
"2012-10-27 19:00","2012","10","27","19:00"," ","13.50","","8.40","","71.00","","3.00","","7.00","","","","100.72","","","","","","NA"
"2012-10-27 20:00","2012","10","27","20:00"," ","13.10","","7.50","","69.00","","2.00","","7.00","","","","100.73","","","","","","NA"
"2012-10-27 21:00","2012","10","27","21:00"," ","12.80","","7.50","","70.00","","3.00","","6.00","","","","100.73","","","","","","NA"
"2012-10-27 22:00","2012","10","27","22:00"," ","12.20","","7.90","","75.00","","1.00","","6.00","","","","100.73","","","","","","NA"
"2012-10-27 23:00","2012","10","27","23:00"," ","11.80","","8.40","","80.00","","1.00","","7.00","","","","100.74","","","","","","NA"
"2012-10-28 00:00","2012","10","28","00:00"," ","10.90","","7.90","","82.00","","36.00","","9.00","","","","100.78","","","","","","NA"
"2012-10-28 01:00","2012","10","28","01:00"," ","10.50","","7.20","","80.00","","36.00","","11.00","","","","100.79","","","","","","NA"
"2012-10-28 02:00","2012","10","28","02:00"," ","10.10","","7.30","","83.00","","36.00","","9.00","","","","100.79","","","","","","NA"
"2012-10-28 03:00","2012","10","28","03:00"," ","10.00","","7.00","","82.00","","1.00","","7.00","","","","100.81","","","","","","NA"
"2012-10-28 04:00","2012","10","28","04:00"," ","9.80","","6.90","","82.00","","1.00","","7.00","","","","100.81","","","","","","NA"
"2012-10-28 05:00","2012","10","28","05:00"," ","9.30","","6.80","","84.00","","35.00","","6.00","","","","100.85","","","","","","NA"
"2012-10-28 06:00","2012","10","28","06:00"," ","9.40","","6.90","","84.00","","1.00","","7.00","","","","100.85","","","","","","NA"
"2012-10-28 07:00","2012","10","28","07:00"," ","9.40","","7.00","","85.00","","1.00","","7.00","","","","100.91","","","","","","NA"
"2012-10-28 08:00","2012","10","28","08:00"," ","9.80","","7.50","","86.00","","1.00","","6.00","","","","100.93","","","","","","NA"
"2012-10-28 09:00","2012","10","28","09:00"," ","10.30","","7.80","","84.00","","1.00","","9.00","","","","100.90","","","","","","NA"
"2012-10-28 10:00","2012","10","28","10:00"," ","11.20","","8.30","","82.00","","2.00","","7.00","","","","100.87","","","","","","NA"
"2012-10-28 11:00","2012","10","28","11:00"," ","11.50","","8.30","","81.00","","3.00","","9.00","","","","100.86","","","","","","NA"
"2012-10-28 12:00","2012","10","28","12:00"," ","11.90","","7.90","","76.00","","2.00","","11.00","","","","100.78","","","","","","NA"
"2012-10-28 13:00","2012","10","28","13:00"," ","12.10","","7.50","","73.00","","1.00","","13.00","","","","100.76","","","","","","NA"
"2012-10-28 14:00","2012","10","28","14:00"," ","12.50","","7.30","","71.00","","2.00","","11.00","","","","100.70","","","","","","NA"
"2012-10-28 15:00","2012","10","28","15:00"," ","12.50","","6.90","","69.00","","2.00","","11.00","","","","100.66","","","","","","NA"
"2012-10-28 16:00","2012","10","28","16:00"," ","12.40","","6.80","","69.00","","2.00","","13.00","","","","100.64","","","","","","NA"
"2012-10-28 17:00","2012","10","28","17:00"," ","12.50","","6.90","","69.00","","2.00","","11.00","","","","100.60","","","","","","NA"
"2012-10-28 18:00","2012","10","28","18:00"," ","12.40","","7.40","","72.00","","2.00","","13.00","","","","100.59","","","","","","NA"
"2012-10-28 19:00","2012","10","28","19:00"," ","12.10","","7.60","","74.00","","2.00","","11.00","","","","100.60","","","","","","NA"
"2012-10-28 20:00","2012","10","28","20:00"," ","11.60","","7.50","","76.00","","2.00","","13.00","","","","100.64","","","","","","NA"
"2012-10-28 21:00","2012","10","28","21:00"," ","10.80","","7.50","","80.00","","1.00","","13.00","","","","100.62","","","","","","NA"
"2012-10-28 22:00","2012","10","28","22:00"," ","10.30","","7.50","","83.00","","2.00","","11.00","","","","100.61","","","","","","NA"
"2012-10-28 23:00","2012","10","28","23:00"," ","9.50","","7.20","","86.00","","2.00","","11.00","","","","100.57","","","","","","NA"
"2012-10-29 00:00","2012","10","29","00:00"," ","9.00","","7.00","","87.00","","2.00","","13.00","","","","100.55","","","","","","NA"
"2012-10-29 01:00","2012","10","29","01:00"," ","8.70","","6.90","","88.00","","1.00","","15.00","","","","100.49","","","","","","NA"
"2012-10-29 02:00","2012","10","29","02:00"," ","8.40","","6.50","","88.00","","2.00","","13.00","","","","100.43","","","","","","NA"
"2012-10-29 03:00","2012","10","29","03:00"," ","8.80","","6.70","","87.00","","3.00","","11.00","","","","100.39","","","","","","NA"
"2012-10-29 04:00","2012","10","29","04:00"," ","9.00","","6.90","","87.00","","3.00","","15.00","","","","","M","","","","","NA"
"2012-10-29 05:00","2012","10","29","05:00"," ","9.30","","7.20","","87.00","","3.00","","11.00","","","","100.31","","","","","","NA"
"2012-10-29 06:00","2012","10","29","06:00"," ","9.20","","7.30","","88.00","","3.00","","11.00","","","","100.27","","","","","","NA"
"2012-10-29 07:00","2012","10","29","07:00"," ","9.30","","7.40","","88.00","","2.00","","11.00","","","","100.30","","","","","","NA"
"2012-10-29 08:00","2012","10","29","08:00"," ","9.80","","7.70","","87.00","","2.00","","13.00","","","","100.26","","","","","","NA"
"2012-10-29 09:00","2012","10","29","09:00"," ","11.30","","8.40","","82.00","","3.00","","13.00","","","","100.19","","","","","","NA"
"2012-10-29 10:00","2012","10","29","10:00"," ","12.30","","8.80","","79.00","","4.00","","13.00","","","","100.15","","","","","","NA"
"2012-10-29 11:00","2012","10","29","11:00"," ","14.10","","9.30","","73.00","","4.00","","13.00","","","","99.93","","","","","","NA"
"2012-10-29 12:00","2012","10","29","12:00"," ","15.00","","10.00","","72.00","","2.00","","15.00","","","","99.81","","","","","","NA"
"2012-10-29 13:00","2012","10","29","13:00"," ","16.60","","9.70","","64.00","","4.00","","9.00","","","","99.83","","","","","","NA"
"2012-10-29 14:00","2012","10","29","14:00"," ","16.40","","10.10","","66.00","","4.00","","13.00","","","","99.75","","","","","","NA"
"2012-10-29 15:00","2012","10","29","15:00"," ","15.80","","10.10","","69.00","","4.00","","15.00","","","","99.71","","","","","","NA"
"2012-10-29 16:00","2012","10","29","16:00"," ","14.40","","10.20","","76.00","","4.00","","19.00","","","","99.67","","","","","","NA"
"2012-10-29 17:00","2012","10","29","17:00"," ","13.90","","9.60","","75.00","","3.00","","17.00","","","","99.53","","","","","","NA"
"2012-10-29 18:00","2012","10","29","18:00"," ","13.40","","9.60","","78.00","","3.00","","19.00","","","","99.45","","","","","","NA"
"2012-10-29 19:00","2012","10","29","19:00"," ","13.30","","9.80","","79.00","","3.00","","19.00","","","","99.33","","","","","","NA"
"2012-10-29 20:00","2012","10","29","20:00"," ","13.20","","9.80","","80.00","","3.00","","24.00","","","","99.19","","","","","","NA"
"2012-10-29 21:00","2012","10","29","21:00"," ","13.20","","9.90","","80.00","","3.00","","19.00","","","","99.14","","","","","","NA"
"2012-10-29 22:00","2012","10","29","22:00"," ","13.80","","10.10","","78.00","","3.00","","20.00","","","","99.05","","","","","","NA"
"2012-10-29 23:00","2012","10","29","23:00"," ","13.80","","10.40","","80.00","","3.00","","19.00","","","","99.00","","","","","","NA"
"2012-10-30 00:00","2012","10","30","00:00"," ","14.20","","10.60","","79.00","","3.00","","19.00","","","","98.95","","","","","","NA"
"2012-10-30 01:00","2012","10","30","01:00"," ","14.20","","10.70","","79.00","","3.00","","17.00","","","","98.91","","","","","","NA"
"2012-10-30 02:00","2012","10","30","02:00"," ","14.60","","10.80","","78.00","","3.00","","13.00","","","","98.98","","","","","","NA"
"2012-10-30 03:00","2012","10","30","03:00"," ","13.70","","10.90","","83.00","","2.00","","17.00","","","","98.87","","","","","","NA"
"2012-10-30 04:00","2012","10","30","04:00"," ","13.30","","10.80","","85.00","","2.00","","15.00","","","","98.91","","","","","","NA"
"2012-10-30 05:00","2012","10","30","05:00"," ","13.20","","10.80","","85.00","","2.00","","13.00","","","","98.94","","","","","","NA"
"2012-10-30 06:00","2012","10","30","06:00"," ","13.00","","10.80","","86.00","","1.00","","17.00","","","","98.98","","","","","","NA"
"2012-10-30 07:00","2012","10","30","07:00"," ","14.90","","11.80","","82.00","","4.00","","9.00","","","","99.03","","","","","","NA"
"2012-10-30 08:00","2012","10","30","08:00"," ","15.40","","11.90","","80.00","","6.00","","11.00","","","","99.10","","","","","","NA"
"2012-10-30 09:00","2012","10","30","09:00"," ","14.90","","12.80","","87.00","","36.00","","11.00","","","","99.13","","","","","","NA"
"2012-10-30 10:00","2012","10","30","10:00"," ","15.80","","13.50","","86.00","","4.00","","6.00","","","","99.19","","","","","","NA"
"2012-10-30 11:00","2012","10","30","11:00"," ","14.80","","13.70","","93.00","","36.00","","9.00","","","","99.16","","","","","","NA"
"2012-10-30 12:00","2012","10","30","12:00"," ","16.70","","14.70","","88.00","","35.00","","6.00","","","","99.09","","","","","","NA"
"2012-10-30 13:00","2012","10","30","13:00"," ","19.60","","13.00","","66.00","","16.00","","7.00","","","","99.08","","","","","","NA"
"2012-10-30 14:00","2012","10","30","14:00"," ","21.30","","12.80","","58.00","","16.00","","7.00","","","","99.10","","","","","","NA"
"2012-10-30 15:00","2012","10","30","15:00"," ","21.40","","9.90","","48.00","","19.00","","7.00","","","","99.09","","","","","","NA"
"2012-10-30 16:00","2012","10","30","16:00"," ","20.60","","8.60","","46.00","","19.00","","6.00","","","","99.09","","","","","","NA"
"2012-10-30 17:00","2012","10","30","17:00"," ","20.10","","10.10","","53.00","","13.00","","6.00","","","","99.15","","","","","","NA"
"2012-10-30 18:00","2012","10","30","18:00"," ","19.20","","11.30","","60.00","","11.00","","6.00","","","","99.21","","","","","","NA"
"2012-10-30 19:00","2012","10","30","19:00"," ","18.20","","11.90","","67.00","","6.00","","4.00","","","","99.24","","","","","","NA"
"2012-10-30 20:00","2012","10","30","20:00"," ","18.10","","12.60","","70.00","","6.00","","4.00","","","","99.20","","","","","","NA"
"2012-10-30 21:00","2012","10","30","21:00"," ","16.40","","13.70","","84.00","","3.00","","6.00","","","","99.20","","","","","","NA"
"2012-10-30 22:00","2012","10","30","22:00"," ","15.20","","14.00","","93.00","","4.00","","6.00","","","","99.08","","","","","","NA"
"2012-10-30 23:00","2012","10","30","23:00"," ","15.20","","14.20","","94.00","","3.00","","6.00","","","","99.04","","","","","","NA"
"2012-10-31 00:00","2012","10","31","00:00"," ","15.00","","14.20","","95.00","","9.00","","2.00","","","","99.00","","","","","","NA"
"2012-10-31 01:00","2012","10","31","01:00"," ","14.60","","13.70","","94.00","","12.00","","4.00","","","","98.93","","","","","","NA"
"2012-10-31 02:00","2012","10","31","02:00"," ","","","","","","","","","","","","","","","","","","",""
"2012-10-31 03:00","2012","10","31","03:00"," ","","","","","","","","","","","","","","","","","","",""
"2012-10-31 04:00","2012","10","31","04:00"," ","","","","","","","","","","","","","","","","","","",""
"2012-10-31 05:00","2012","10","31","05:00"," ","","","","","","","","","","","","","","","","","","",""
"2012-10-31 06:00","2012","10","31","06:00"," ","","","","","","","","","","","","","","","","","","",""
"2012-10-31 07:00","2012","10","31","07:00"," ","","","","","","","","","","","","","","","","","","",""
"2012-10-31 08:00","2012","10","31","08:00"," ","","","","","","","","","","","","","","","","","","",""
"2012-10-31 09:00","2012","10","31","09:00"," ","","","","","","","","","","","","","","","","","","",""
"2012-10-31 10:00","2012","10","31","10:00"," ","","","","","","","","","","","","","","","","","","",""
"2012-10-31 11:00","2012","10","31","11:00"," ","","","","","","","","","","","","","","","","","","",""
"2012-10-31 12:00","2012","10","31","12:00"," ","","","","","","","","","","","","","","","","","","",""
"2012-10-31 13:00","2012","10","31","13:00"," ","","","","","","","","","","","","","","","","","","",""
"2012-10-31 14:00","2012","10","31","14:00"," ","","","","","","","","","","","","","","","","","","",""
"2012-10-31 15:00","2012","10","31","15:00"," ","","","","","","","","","","","","","","","","","","",""
"2012-10-31 16:00","2012","10","31","16:00"," ","","","","","","","","","","","","","","","","","","",""
"2012-10-31 17:00","2012","10","31","17:00"," ","","","","","","","","","","","","","","","","","","",""
"2012-10-31 18:00","2012","10","31","18:00"," ","","","","","","","","","","","","","","","","","","",""
"2012-10-31 19:00","2012","10","31","19:00"," ","","","","","","","","","","","","","","","","","","",""
"2012-10-31 20:00","2012","10","31","20:00"," ","","","","","","","","","","","","","","","","","","",""
"2012-10-31 21:00","2012","10","31","21:00"," ","","","","","","","","","","","","","","","","","","",""
"2012-10-31 22:00","2012","10","31","22:00"," ","","","","","","","","","","","","","","","","","","",""
"2012-10-31 23:00","2012","10","31","23:00"," ","","","","","","","","","","","","","","","","","","",""
